{
"type": "FeatureCollection",
"name": "AJ",
"crs": { "type": "name", "properties": { "name": "urn:ogc:def:crs:OGC:1.3:CRS84" } },
"features": [
{ "type": "Feature", "properties": { "ISO3166-2": "AE-AJ", "admin_level": "4", "alt_name:ar": "إمارة عجمان", "alt_name:de": "Adschman (Emirat)", "alt_name:en": "Emirate of Ajman", "alt_name:fa": "عجمان", "boundary": "administrative", "name": "إمارة عجمان", "name:ang": "Ajman", "name:ar": "إمارة عجمان", "name:be": "Аджман (эмірат)", "name:bg": "Аджман", "name:bn": "আজমান আমিরাত", "name:br": "Ajman", "name:bs": "Ajman (emirat)", "name:ca": "Ajman", "name:ceb": "‘Ajmān", "name:cs": "Adžmán (emirát)", "name:da": "Ajman (emirat)", "name:de": "Emirat Adschman", "name:el": "Ατζμάν", "name:en": "Ajman Emirate", "name:eo": "Aĵmano", "name:es": "Ajman", "name:et": "‘Ajmāni emiraat", "name:eu": "Ajman", "name:fa": "امارت عجمان", "name:fi": "Ajman", "name:fr": "Ajman", "name:frp": "Adj·man", "name:gl": "Emirato de Axman", "name:he": "עג'מאן", "name:hi": "अजमान", "name:hr": "Ajman", "name:hy": "Աջմանի Էմիրություն", "name:id": "Keamiran Ajman", "name:is": "Adsman", "name:it": "Emirato di Ajman", "name:ja": "アジュマーン", "name:ka": "აჯმანის საამირო", "name:kk": "Аджман (әмірлік)", "name:ko": "아지만 토후국", "name:lb": "Adschman", "name:lmo": "Ajman", "name:lv": "Adžmānas emirāts", "name:ml": "അജ്‌മാൻ", "name:mn": "Ажман (эмират)", "name:mr": "अजमान", "name:ms": "Ajman", "name:nan": "Ajman Thâu-lâng-kok", "name:nl": "Ajman", "name:nn": "Emiratet Ajman", "name:no": "Ajman", "name:pa": "ਅਜਮਾਨ", "name:pl": "Adżman (emirat)", "name:pms": "Ajman", "name:pnb": "امارت عجمان", "name:pt": "Ajmã", "name:ro": "Emiratul Ajman", "name:ru": "Аджман", "name:sco": "Ajman", "name:sh": "Adžman (emirat)", "name:sk": "Adžmán", "name:sr": "Аџман (емират)", "name:sv": "Ajman", "name:sw": "Ajmān", "name:ta": "அஜ்மான்", "name:th": "รัฐอัจญ์มาน", "name:tl": "Ajman", "name:tr": "Acman Emirliği", "name:tt": "Гаҗман (әмирлек)", "name:uk": "Аджман", "name:ur": "امارات عجمان", "name:vi": "Ajman (tiểu vương quốc)", "name:war": "Emirato han Ajman", "name:wuu": "阿治曼", "name:xmf": "აჯმანიშ საამირო", "name:yo": "Ajman", "name:yue": "阿治曼酋長國", "name:zh": "阿吉曼", "sorting_name": "عجمان", "sorting_name:ar": "عجمان", "sorting_name:de": "Adschman", "sorting_name:fa": "عجمان", "sorting_name:pnb": "عجمان", "sorting_name:ur": "عجمان", "type": "boundary", "wikidata": "Q159477", "wikipedia": "ar:عجمان" }, "geometry": { "type": "MultiPolygon", "coordinates": [ [ [ [ 56.0131238, 25.3418084 ], [ 56.0267299, 25.3422354 ], [ 56.0328161, 25.3393304 ], [ 56.0394851, 25.3361471 ], [ 56.0300541, 25.3237413 ], [ 56.0248233, 25.3204217 ], [ 56.0201462, 25.3178195 ], [ 56.0119582, 25.3131686 ], [ 56.0039178, 25.3053497 ], [ 55.9999739, 25.2996124 ], [ 55.999199, 25.30321 ], [ 55.9836057, 25.315309 ], [ 55.9649913, 25.3268744 ], [ 55.9650653, 25.3412725 ], [ 55.9752624, 25.3408 ], [ 55.9785203, 25.3486978 ], [ 55.9875034, 25.3468112 ], [ 56.003961, 25.3463155 ], [ 56.0125526, 25.340635 ], [ 56.0131238, 25.3418084 ] ] ], [ [ [ 56.0606677, 24.869518 ], [ 56.0723673, 24.8372375 ], [ 56.0899473, 24.8338645 ], [ 56.1001127, 24.8231 ], [ 56.1054084, 24.8199007 ], [ 56.1141385, 24.8124168 ], [ 56.1071623, 24.79851 ], [ 56.1036383, 24.7908188 ], [ 56.0993258, 24.7817566 ], [ 56.0962034, 24.7752785 ], [ 56.0938727, 24.7703432 ], [ 56.0918214, 24.7661019 ], [ 56.0885962, 24.7593868 ], [ 56.0843823, 24.7506461 ], [ 56.0811398, 24.7432899 ], [ 56.0811398, 24.7432899 ], [ 56.0463103, 24.7957545 ], [ 56.0457356, 24.7966289 ], [ 56.0449482, 24.7978339 ], [ 56.0441748, 24.7989107 ], [ 56.0438752, 24.7993424 ], [ 56.0429858, 24.800778 ], [ 56.0420137, 24.8021879 ], [ 56.0412193, 24.8033934 ], [ 56.0407713, 24.8041082 ], [ 56.0402052, 24.8053315 ], [ 56.0400889, 24.8054905 ], [ 56.0400079, 24.8055603 ], [ 56.0396051, 24.8057914 ], [ 56.0395017, 24.8058918 ], [ 56.0394504, 24.8059826 ], [ 56.0393249, 24.8067136 ], [ 56.0392554, 24.8070324 ], [ 56.0391486, 24.8071631 ], [ 56.038888, 24.8073753 ], [ 56.0383381, 24.807746 ], [ 56.0381717, 24.8079489 ], [ 56.0381055, 24.808129 ], [ 56.0375297, 24.808955 ], [ 56.0375109, 24.809029 ], [ 56.0376347, 24.809224 ], [ 56.037778, 24.8094308 ], [ 56.0378196, 24.8095506 ], [ 56.0378121, 24.8096196 ], [ 56.0377669, 24.8096773 ], [ 56.03769, 24.8097093 ], [ 56.0376222, 24.8097157 ], [ 56.0373318, 24.809623 ], [ 56.0371603, 24.8095756 ], [ 56.0370786, 24.8095857 ], [ 56.037018, 24.8096828 ], [ 56.0370142, 24.8097778 ], [ 56.0370974, 24.8098879 ], [ 56.0374227, 24.8102151 ], [ 56.0373933, 24.8102509 ], [ 56.0370879, 24.810209 ], [ 56.0368135, 24.8101541 ], [ 56.036564, 24.8104745 ], [ 56.0364238, 24.810642 ], [ 56.0364072, 24.8107818 ], [ 56.0363141, 24.8109467 ], [ 56.0361081, 24.8109873 ], [ 55.999693, 24.8555251 ], [ 55.9996148, 24.8556208 ], [ 55.9993475, 24.8559477 ], [ 55.9962322, 24.8598548 ], [ 55.9783405, 24.8773628 ], [ 55.9801644, 24.8944923 ], [ 56.050014, 24.8739237 ], [ 56.0501369, 24.873568 ], [ 56.0503323, 24.8728692 ], [ 56.0505546, 24.8723139 ], [ 56.0506359, 24.8722127 ], [ 56.050842, 24.872074 ], [ 56.051653, 24.8720704 ], [ 56.0524784, 24.871869 ], [ 56.0533321, 24.8719604 ], [ 56.0535724, 24.8721485 ], [ 56.0537403, 24.8724816 ], [ 56.0538802, 24.8727585 ], [ 56.0541299, 24.87273 ], [ 56.0549315, 24.8723307 ], [ 56.0559207, 24.8720375 ], [ 56.0567609, 24.871903 ], [ 56.0569926, 24.8718536 ], [ 56.0578313, 24.871619 ], [ 56.058041, 24.8713366 ], [ 56.0581434, 24.8709271 ], [ 56.0582675, 24.8704616 ], [ 56.0583789, 24.8702807 ], [ 56.0585443, 24.8702001 ], [ 56.05907, 24.8700226 ], [ 56.0594342, 24.8697823 ], [ 56.0597, 24.8696667 ], [ 56.0602485, 24.8695475 ], [ 56.0606677, 24.869518 ] ] ], [ [ [ 55.564846, 25.4359712 ], [ 55.5693169, 25.4343453 ], [ 55.5914043, 25.4263031 ], [ 55.5928051, 25.4258117 ], [ 55.5964736, 25.4245062 ], [ 55.5988953, 25.4240929 ], [ 55.6034675, 25.4234431 ], [ 55.6158136, 25.4217014 ], [ 55.6181449, 25.4213574 ], [ 55.619236, 25.4210652 ], [ 55.6199456, 25.4207648 ], [ 55.621195, 25.4199911 ], [ 55.6275961, 25.4155336 ], [ 55.6284599, 25.4146958 ], [ 55.628758, 25.4142195 ], [ 55.6292323, 25.4135475 ], [ 55.6299328, 25.4122687 ], [ 55.6300431, 25.4116597 ], [ 55.6295938, 25.4096576 ], [ 55.6008401, 25.3767158 ], [ 55.6003661, 25.3761762 ], [ 55.5948639, 25.3698975 ], [ 55.5934003, 25.3687467 ], [ 55.5924759, 25.3683217 ], [ 55.5911329, 25.3679855 ], [ 55.5889724, 25.3677759 ], [ 55.5832351, 25.367224 ], [ 55.5827626, 25.3671807 ], [ 55.5745799, 25.366421 ], [ 55.5595844, 25.3650267 ], [ 55.555067, 25.3646065 ], [ 55.5388843, 25.3630809 ], [ 55.5382006, 25.362955 ], [ 55.5326957, 25.3619504 ], [ 55.5163735, 25.3589349 ], [ 55.5158118, 25.3588309 ], [ 55.5113316, 25.3580038 ], [ 55.5054208, 25.3569123 ], [ 55.5050756, 25.35685 ], [ 55.5006827, 25.3560654 ], [ 55.5001267, 25.3560489 ], [ 55.4998242, 25.3560395 ], [ 55.4992683, 25.3560216 ], [ 55.4980164, 25.356233 ], [ 55.4970096, 25.3566908 ], [ 55.4937628, 25.3581668 ], [ 55.4935767, 25.3582581 ], [ 55.4919329, 25.3590641 ], [ 55.4915284, 25.3592625 ], [ 55.4801813, 25.3648278 ], [ 55.4584199, 25.3754924 ], [ 55.4576753, 25.3758614 ], [ 55.4570386, 25.3762383 ], [ 55.4449025, 25.3833181 ], [ 55.4391831, 25.3866616 ], [ 55.4363521, 25.3883084 ], [ 55.4337163, 25.3898506 ], [ 55.4322377, 25.3907109 ], [ 55.4316973, 25.3910253 ], [ 55.4316511, 25.3910521 ], [ 55.4295657, 25.3922593 ], [ 55.429341, 25.3924786 ], [ 55.4292199, 25.3927498 ], [ 55.4292465, 25.3930206 ], [ 55.4291, 25.3930995 ], [ 55.4284234, 25.3932219 ], [ 55.4277612, 25.3932973 ], [ 55.4276549, 25.3932981 ], [ 55.4273193, 25.3936005 ], [ 55.426953, 25.3941343 ], [ 55.4249751, 25.3964959 ], [ 55.42427, 25.3974049 ], [ 55.4233526, 25.3984085 ], [ 55.4231437, 25.3986488 ], [ 55.422971, 25.3989174 ], [ 55.2350748, 25.5700834 ], [ 55.2385192, 25.570346 ], [ 55.2730684, 25.5680481 ], [ 55.2795994, 25.5665793 ], [ 55.2892555, 25.5829995 ], [ 55.3015804, 25.5994214 ], [ 55.3117729, 25.6106044 ], [ 55.3205286, 25.6184125 ], [ 55.324428, 25.6230138 ], [ 55.4709612, 25.4516781 ], [ 55.4723193, 25.4507081 ], [ 55.4750384, 25.4486382 ], [ 55.4771288, 25.4472022 ], [ 55.4840942, 25.4428076 ], [ 55.4858437, 25.4421264 ], [ 55.4879569, 25.4420045 ], [ 55.5060693, 25.4443153 ], [ 55.5077153, 25.4445192 ], [ 55.5091666, 25.4446997 ], [ 55.5118675, 25.4450446 ], [ 55.5164033, 25.4455916 ], [ 55.5185165, 25.4456517 ], [ 55.5222319, 25.4457767 ], [ 55.5343284, 25.4466564 ], [ 55.5366266, 25.446223 ], [ 55.564846, 25.4359712 ] ] ] ] } }
]
}
