{
"type": "FeatureCollection",
"name": "UQ",
"crs": { "type": "name", "properties": { "name": "urn:ogc:def:crs:OGC:1.3:CRS84" } },
"features": [
{ "type": "Feature", "properties": { "ISO3166-2": "AE-UQ", "admin_level": "4", "alt_name:ar": "إمارة أم القيوين", "alt_name:en": "Emirate of Umm Al Quwain", "boundary": "administrative", "name": "أم القيوين", "name:ang": "Umm Al Quwain", "name:ar": "أم القيوين", "name:ast": "Emiratu d'Umm al-Qaywayn", "name:be": "Ум-эль-Кайвайн", "name:bg": "Ум ал-Куейн", "name:bn": "উম্ম আল কোয়াইন আমিরাত", "name:br": "Umm al-Qaywayn", "name:bs": "Umm al-Quwain", "name:ca": "Umm al-Qaiwain", "name:ceb": "Umm al Qaywayn", "name:cs": "Umm al-Kuvajn", "name:da": "Umm al-Qaiwain", "name:de": "Umm al-Qaiwain", "name:en": "Umm al-Quwain", "name:es": "Umm al-Qaywayn", "name:et": "Umm al-Qaywayni emiraat", "name:eu": "Umm al-Qaiwain", "name:fa": "ام‌القیوین", "name:fi": "Umm al-Qaiwain", "name:fr": "Oumm al Qaïwaïn", "name:frr": "Umm al-Qaiwain", "name:gl": "Emirato de Umm al Qaywayn", "name:he": "אום אל-קיוין", "name:hi": "उम अल क्वैन", "name:hy": "Ումմ ալ-Քուվեյնի Էմիրություն", "name:id": "Keamiran Umm al-Qaiwain", "name:it": "Emirato di Umm al-Qaywayn", "name:ja": "ウンム・アル＝カイワイン", "name:ka": "უმ-ელ-კაივაინის საამირო", "name:ko": "움알쿠와인 토후국", "name:lb": "Umm al Kaiwan", "name:lmo": "Umm al-Quwain", "name:lv": "Ummelkaivainas emirāts", "name:ml": "ഉം അൽ കുവൈൻ", "name:mr": "उम अल-कुवैन", "name:nan": "Umm al-Quwain", "name:nl": "Umm al-Qaiwain", "name:nn": "Umm al-Qaiwain", "name:no": "Umm al-Qaiwain", "name:pa": "ਉਮ ਅਲ-ਕਿਵੇਨ", "name:pl": "Umm al-Kajwajn", "name:pms": "Umm al-Quwain", "name:pnb": "ام القوین (امارت)", "name:pt": "Umm al Qaywayn", "name:ro": "Emiratul Umm Al-Qaiwain", "name:ru": "Умм-эль-Кайвайн", "name:sco": "Umm al-Quwain", "name:sh": "Um al-Kuvain", "name:sk": "Umm al-Kuvajn", "name:sr": "Ум ел Кајвејн", "name:sv": "Umm al-Qaywayn", "name:sw": "Umm al-Quwain", "name:ta": "உம் அல்-குவைன்", "name:th": "รัฐอุมม์อัลกุเวน", "name:tl": "Umm al-Qaiwain", "name:tr": "Ummü'l-Kayveyn Emirliği", "name:tt": "Өммел-Кайвәйн", "name:uk": "Умм-ель-Кайвайн", "name:ur": "ام القیوین", "name:vi": "Umm Al Quwain", "name:war": "Emirato han Umm Al Quwain", "name:wuu": "乌姆盖万", "name:xmf": "უმ-ელ-ქაივაინიშ საამირო", "name:yo": "Um Al Quwain", "name:yue": "歐姆古溫酋長國", "name:zh": "烏姆蓋萬", "official_name": "إمارة أم القيوين", "official_name:ar": "إمارة أم القيوين", "ref": "UQ", "state_code": "UQ", "type": "boundary", "wikidata": "Q175021", "wikipedia": "en:Emirate of Umm Al Quwain", "wikipedia:ar": "أم القيوين" }, "geometry": { "type": "MultiPolygon", "coordinates": [ [ [ [ 55.5210818, 25.5190664 ], [ 55.5211269, 25.5190497 ], [ 55.5211269, 25.5190497 ], [ 55.5212875, 25.5189902 ], [ 55.5351045, 25.5049039 ], [ 55.5351045, 25.5049039 ], [ 55.5377931, 25.5021645 ], [ 55.5416862, 25.4981973 ], [ 55.5432422, 25.4966117 ], [ 55.5448161, 25.4950077 ], [ 55.5455227, 25.4942876 ], [ 55.5461596, 25.4936385 ], [ 55.5467155, 25.493072 ], [ 55.5467155, 25.493072 ], [ 55.5468163, 25.4929692 ], [ 55.5468163, 25.4929692 ], [ 55.5520305, 25.4876698 ], [ 55.5598218, 25.48312 ], [ 55.5710144, 25.4765705 ], [ 55.5710144, 25.4765705 ], [ 55.5739618, 25.4748492 ], [ 55.5757029, 25.4738324 ], [ 55.5778624, 25.4725711 ], [ 55.5795583, 25.4715878 ], [ 55.5807202, 25.4709108 ], [ 55.5838673, 25.4690703 ], [ 55.5863542, 25.4676109 ], [ 55.5910711, 25.4648552 ], [ 55.6014828, 25.4557837 ], [ 55.6103411, 25.4472301 ], [ 55.6103411, 25.4472301 ], [ 55.6234604, 25.4352436 ], [ 55.6413959, 25.432078 ], [ 55.6413959, 25.432078 ], [ 55.6546881, 25.4293066 ], [ 55.6580013, 25.428232 ], [ 55.6610173, 25.4266233 ], [ 55.6726268, 25.4219555 ], [ 55.6918419, 25.4171102 ], [ 55.69445, 25.4163621 ], [ 55.6962915, 25.4164765 ], [ 55.6973604, 25.4165346 ], [ 55.7028511, 25.41686 ], [ 55.707969, 25.4171602 ], [ 55.7097105, 25.4172667 ], [ 55.7109483, 25.41734 ], [ 55.7163953, 25.4176482 ], [ 55.7243723, 25.4180983 ], [ 55.7417888, 25.4190792 ], [ 55.7434648, 25.4191729 ], [ 55.7434648, 25.4191729 ], [ 55.7541121, 25.4035865 ], [ 55.7582001, 25.3976007 ], [ 55.7613171, 25.3960889 ], [ 55.7809803, 25.3865495 ], [ 55.8104026, 25.376345 ], [ 55.793379, 25.3709378 ], [ 55.8107582, 25.3399398 ], [ 55.7919275, 25.3303134 ], [ 55.8154163, 25.3122445 ], [ 55.8154163, 25.3122445 ], [ 55.8483331, 25.31578 ], [ 55.8519623, 25.3171483 ], [ 55.8578936, 25.3189476 ], [ 55.8620444, 25.3224924 ], [ 55.8624173, 25.3231437 ], [ 55.8680919, 25.3250736 ], [ 55.8768842, 25.3262227 ], [ 55.8768842, 25.3262227 ], [ 55.8677906, 25.3786283 ], [ 55.8709261, 25.4131994 ], [ 55.835835, 25.4663157 ], [ 55.8297249, 25.5018602 ], [ 55.8291152, 25.5646662 ], [ 55.7480342, 25.6578314 ], [ 55.7477525, 25.6581505 ], [ 55.7477525, 25.6581505 ], [ 55.7462898, 25.6598071 ], [ 55.5986524, 25.8530661 ], [ 55.5986524, 25.8530661 ], [ 55.5706876, 25.8300832 ], [ 55.5543596, 25.8111482 ], [ 55.4974676, 25.7963891 ], [ 55.4628455, 25.7807774 ], [ 55.4317598, 25.7599469 ], [ 55.4051588, 25.734535 ], [ 55.3963072, 25.72227 ], [ 55.3779474, 25.7021151 ], [ 55.3757896, 25.6989797 ], [ 55.3757896, 25.6989797 ], [ 55.5177911, 25.5224266 ], [ 55.5210818, 25.5190664 ] ] ] ] } }
]
}
