{
"type": "FeatureCollection",
"name": "064",
"crs": { "type": "name", "properties": { "name": "urn:ogc:def:crs:OGC:1.3:CRS84" } },
"features": [
{ "type": "Feature", "properties": { "ISO3166-2": "MN-064", "admin_level": "4", "alt_name:de": "Gobi-Sümber-Aimag", "alt_name:en": "Govisümber Province", "alt_name:es": "Provincia de Govisümber", "alt_name:ja": "ゴビスンベル県", "alt_name:mn": "Говьсүмбэр аймаг", "boundary": "administrative", "name": "Говьсүмбэр ᠭᠣᠪᠢ ᠰᠦᠮᠪᠦᠷ", "name:ace": "Aimag Govisümber", "name:ar": "محافظة جوفيسومبر", "name:az": "Qovisümber vilayəti", "name:azb": "قاوی‌سومبر اوستانی", "name:be-tarask": "Гоў-Сумбэр", "name:bg": "Гови Сумбер", "name:ca": "Província de Govisümber", "name:ceb": "Govĭ-Sumber", "name:da": "Gov-Sümber", "name:de": "Gobi-Sümber", "name:en": "Govisumber", "name:es": "Govisümber", "name:et": "Gov-Sümberi aimakk", "name:fa": "استان غوبی‌سومبر", "name:fi": "Govisümber", "name:fr": "Govisümber", "name:frr": "Gow'sümber", "name:ga": "Govisümber", "name:he": "גוביסומבר", "name:hi": "गोवीसुम्बेर प्रांत", "name:hu": "Góbi-Szümber tartomány", "name:id": "Provinsi Govisümber", "name:it": "Provincia del Gov'-Sùmbėr", "name:ja": "ゴビスンベル", "name:ka": "გობი-სუმბერი", "name:ko": "고비숨베르주", "name:lt": "Govisiumbero aimakas", "name:mk": "Говисумбер", "name:mn": "Говьсүмбэр", "name:mn-Cyrl": "Говьсүмбэр", "name:mn-Mong": "ᠭᠣᠪᠢ ᠰᠦᠮᠪᠦᠷ", "name:nan": "Govisümber Séng", "name:nl": "Govĭsümber", "name:no": "Gov-Sümber", "name:pl": "Ajmak gobijsko-sumberski", "name:pnb": "صوبہ گوئی سمبر", "name:pt": "Govĭsümber", "name:ro": "Gobi-Sümber-Aimag", "name:ru": "Говь-Сумбэр", "name:sco": "Govisümber Province", "name:sv": "Gobi-Sümber", "name:tg": "Вилояти Гов-Сумбер", "name:tl": "Lalawigan ng Govisümber", "name:tr": "Gobisümber", "name:uk": "Говь-Сумбер", "name:ur": "گوبی سومبر صوبہ", "name:vi": "Govisümber", "name:war": "Govisümber", "name:yue": "戈壁蘇木貝爾", "name:zh": "戈壁苏木贝尔省", "name:zh-Hans": "戈壁苏木贝尔省", "name:zh-Hant": "戈壁蘇木貝爾省", "name:zh-Latn-pinyin": "Xīnbā'ěrhǔ Yòu Qí", "timezone": "Asia/Ulaanbaatar", "type": "boundary", "wikidata": "Q236333", "wikipedia": "en:Govisümber Province" }, "geometry": { "type": "MultiPolygon", "coordinates": [ [ [ [ 108.4861988, 46.7911935 ], [ 108.2611015, 46.8233431 ], [ 108.1817129, 46.8277444 ], [ 108.0246357, 46.814988 ], [ 107.9760563, 46.7818179 ], [ 107.8839312, 46.7812874 ], [ 107.884646, 46.7804853 ], [ 107.8968877, 46.7736721 ], [ 107.8984228, 46.772939 ], [ 107.8996189, 46.7726036 ], [ 107.9007092, 46.77246 ], [ 107.9018304, 46.7724175 ], [ 107.9197713, 46.7734167 ], [ 107.9207319, 46.773449 ], [ 107.9215021, 46.7733939 ], [ 107.9222425, 46.7732658 ], [ 107.9229374, 46.773103 ], [ 107.9236834, 46.7728391 ], [ 107.9242825, 46.7725907 ], [ 107.9396204, 46.764755 ], [ 107.9402191, 46.764535 ], [ 107.9409124, 46.7643289 ], [ 107.9416859, 46.7641426 ], [ 107.9428103, 46.7639595 ], [ 107.957151, 46.762087 ], [ 107.9581064, 46.7619068 ], [ 107.9590123, 46.7616093 ], [ 107.9599049, 46.7613014 ], [ 107.9815194, 46.752164 ], [ 107.9822565, 46.7517532 ], [ 107.9828807, 46.7513506 ], [ 107.9833654, 46.7508952 ], [ 107.9968877, 46.7384266 ], [ 107.9974738, 46.7378261 ], [ 107.9979907, 46.7371367 ], [ 107.9982862, 46.7365434 ], [ 107.9984659, 46.7358823 ], [ 107.9988536, 46.7324145 ], [ 107.998995, 46.7317394 ], [ 107.9992278, 46.7311194 ], [ 107.9996682, 46.7304299 ], [ 108.0002112, 46.7297184 ], [ 108.003184, 46.7260449 ], [ 108.0039331, 46.725327 ], [ 108.0049438, 46.7246909 ], [ 108.0403915, 46.7095204 ], [ 108.0460307, 46.7075004 ], [ 108.0549495, 46.7037015 ], [ 108.0641404, 46.6998523 ], [ 108.0907032, 46.6887294 ], [ 108.1339357, 46.6705969 ], [ 108.1363183, 46.6695559 ], [ 108.137592, 46.6687734 ], [ 108.1459462, 46.6635557 ], [ 108.1626454, 46.6530411 ], [ 108.1658154, 46.6509441 ], [ 108.1722213, 46.6452565 ], [ 108.1912907, 46.6339451 ], [ 108.2055221, 46.6254083 ], [ 108.2067125, 46.6249149 ], [ 108.2082343, 46.6244834 ], [ 108.2102342, 46.6242983 ], [ 108.2148502, 46.6242435 ], [ 108.2169193, 46.6241864 ], [ 108.2194675, 46.6237829 ], [ 108.2260743, 46.6228036 ], [ 108.2285766, 46.6222846 ], [ 108.2368206, 46.6196319 ], [ 108.2399823, 46.6186035 ], [ 108.2417193, 46.6179298 ], [ 108.2428825, 46.6171785 ], [ 108.2438449, 46.6161623 ], [ 108.2780968, 46.5672157 ], [ 108.1953749, 46.5413687 ], [ 108.1814851, 46.5270022 ], [ 108.1569419, 46.4891376 ], [ 108.233099, 46.3984804 ], [ 108.2974526, 46.3420472 ], [ 108.2956112, 46.3223752 ], [ 108.301998, 46.3102668 ], [ 108.3078136, 46.2835035 ], [ 108.2847701, 46.2542443 ], [ 108.2599334, 46.2104673 ], [ 108.2593443, 46.18403 ], [ 108.239534, 46.1219015 ], [ 108.144476, 46.0769346 ], [ 108.2163251, 46.0075592 ], [ 108.2890432, 45.954145 ], [ 108.2898589, 45.9487392 ], [ 108.3226321, 45.9292874 ], [ 108.3235864, 45.9084464 ], [ 108.4079345, 45.8807194 ], [ 108.4356993, 45.9089815 ], [ 108.5672451, 45.9455529 ], [ 108.6829035, 45.9634073 ], [ 108.7464986, 46.0574522 ], [ 108.745466, 46.059406 ], [ 108.7435773, 46.0658629 ], [ 108.7415858, 46.0772899 ], [ 108.7345055, 46.0898539 ], [ 108.7311488, 46.0946858 ], [ 108.7282781, 46.0999824 ], [ 108.7268993, 46.1014858 ], [ 108.7254241, 46.1029577 ], [ 108.7243303, 46.1036089 ], [ 108.7154444, 46.1055945 ], [ 108.7110669, 46.1069017 ], [ 108.6947997, 46.110461 ], [ 108.6924037, 46.1112616 ], [ 108.6907923, 46.1127546 ], [ 108.6871054, 46.1173098 ], [ 108.6834567, 46.1221893 ], [ 108.6826334, 46.1230414 ], [ 108.6808944, 46.1241483 ], [ 108.6773982, 46.1255626 ], [ 108.6717415, 46.1277074 ], [ 108.6690545, 46.1289497 ], [ 108.6656895, 46.1314661 ], [ 108.6611969, 46.1366864 ], [ 108.7152123, 46.180569 ], [ 108.7865401, 46.2357712 ], [ 109.0222371, 46.5058931 ], [ 109.0441819, 46.5628161 ], [ 109.0509094, 46.572534 ], [ 109.0410678, 46.6141128 ], [ 109.0417028, 46.7096055 ], [ 109.0591177, 46.727785 ], [ 109.0981573, 46.8337055 ], [ 109.1197996, 46.8644431 ], [ 109.0998456, 46.8813767 ], [ 109.0595384, 46.8648243 ], [ 108.9510869, 46.8370664 ], [ 108.9586758, 46.9703806 ], [ 108.9541614, 46.9721112 ], [ 108.9534261, 46.9726229 ], [ 108.9525385, 46.9730657 ], [ 108.9512422, 46.9732903 ], [ 108.9507014, 46.9730536 ], [ 108.950052, 46.9724437 ], [ 108.9491088, 46.9722335 ], [ 108.9467485, 46.9722837 ], [ 108.9432401, 46.9732913 ], [ 108.9420863, 46.9733017 ], [ 108.9396266, 46.9721496 ], [ 108.9374892, 46.9722248 ], [ 108.9357766, 46.9714822 ], [ 108.933421, 46.9715723 ], [ 108.9322587, 46.9712985 ], [ 108.9300645, 46.9692325 ], [ 108.9280173, 46.9679289 ], [ 108.9258487, 46.9676974 ], [ 108.9230001, 46.9682418 ], [ 108.9200849, 46.9695673 ], [ 108.9194364, 46.9716665 ], [ 108.918031, 46.9731122 ], [ 108.9160232, 46.9742019 ], [ 108.9140439, 46.9747128 ], [ 108.9122305, 46.9751693 ], [ 108.9094153, 46.9755244 ], [ 108.905723, 46.9776563 ], [ 108.9044293, 46.9786308 ], [ 108.9030631, 46.9811873 ], [ 108.902189, 46.9817279 ], [ 108.901448, 46.9818273 ], [ 108.9005667, 46.981785 ], [ 108.8993782, 46.9817227 ], [ 108.8978626, 46.9823014 ], [ 108.8968826, 46.9824935 ], [ 108.8958514, 46.9826041 ], [ 108.8953122, 46.9823879 ], [ 108.8940988, 46.981463 ], [ 108.8930105, 46.9805585 ], [ 108.891967, 46.9802163 ], [ 108.8843506, 46.9804859 ], [ 108.8829672, 46.9810669 ], [ 108.8797568, 46.9858872 ], [ 108.8782553, 46.9872483 ], [ 108.8771636, 46.9877987 ], [ 108.8745822, 46.989307 ], [ 108.8724992, 46.9893802 ], [ 108.870923, 46.9887045 ], [ 108.8689458, 46.9871268 ], [ 108.8676843, 46.9864866 ], [ 108.8665339, 46.9862345 ], [ 108.8652258, 46.9861592 ], [ 108.8639656, 46.9862946 ], [ 108.862778, 46.9868145 ], [ 108.8608093, 46.9886647 ], [ 108.8549977, 46.989089 ], [ 108.8540851, 46.9895329 ], [ 108.8534864, 46.990017 ], [ 108.8532407, 46.9914882 ], [ 108.8528069, 46.9926864 ], [ 108.8523471, 46.9932112 ], [ 108.8476666, 46.9940468 ], [ 108.8441947, 46.9952412 ], [ 108.8434727, 46.9961064 ], [ 108.8430888, 46.9970637 ], [ 108.8427398, 46.9991324 ], [ 108.8412282, 47.0000639 ], [ 108.8412282, 47.0000639 ], [ 108.8362767, 46.9365705 ], [ 108.7749422, 46.8750266 ], [ 108.557598, 46.7915881 ], [ 108.4861988, 46.7911935 ] ] ] ] } }
]
}
