{
"type": "FeatureCollection",
"name": "BB",
"crs": { "type": "name", "properties": { "name": "urn:ogc:def:crs:OGC:1.3:CRS84" } },
"features": [
{ "type": "Feature", "properties": { "ISO3166-2": "ID-BB", "admin_level": "4", "alt_name:ar": "بانقكا بليتونق;جزر بانجكا بليتونغ;جزر بانكا بليتونغ;بانكا بليتونغ;بانجكا بليتونغ", "boundary": "administrative", "name": "Kepulauan Bangka Belitung", "name:ar": "جزر بانقكا بليتونق", "name:cs": "Bangka-Belitung", "name:de": "Bangka-Belitung", "name:en": "Bangka-Belitung Islands", "name:fr": "Îles Bangka Belitung", "name:id": "Kepulauan Bangka Belitung", "name:ja": "バンカ・ブリトゥン", "name:ko": "방카벨리퉁주", "name:nl": "Bangka-Belitung", "name:pl": "Wyspy Bangka i Belitung", "name:ru": "Банка-Белитунг", "name:su": "ᮊᮕᮥᮜᮧᮃᮔ᮪ ᮘᮀᮊ ᮘᮨᮜᮤᮒᮥᮀ", "name:su-Latn": "Kapuloan Bangka Belitung", "name:uk": "Банка-Белітунґ", "name:vi": "Tỉnh Bangka-Belitung", "name:zh": "邦加-勿里洞省", "population": "1537627", "population:date": "2024", "ref": "BB-1", "ref:ID:kemendagri": "19", "short_name": "Babel", "source:population": "Data Kependudukan Bersih (DKB) Kemendagri RI", "timezone": "Asia/Jakarta", "type": "boundary", "website": "https://www.babelprov.go.id/", "wikidata": "Q1866", "wikipedia": "id:Kepulauan Bangka Belitung" }, "geometry": { "type": "MultiPolygon", "coordinates": [ [ [ [ 105.0052938, -1.5138437 ], [ 105.0122093, -1.1825041 ], [ 106.1913547, -0.4529511 ], [ 108.1978946, -0.2732799 ], [ 108.1978946, -0.2732799 ], [ 108.2592902, -1.0242886 ], [ 108.5337719, -2.009073 ], [ 109.3877679, -2.0671549 ], [ 109.3897948, -2.4202667 ], [ 109.0697907, -4.0387936 ], [ 109.0697907, -4.0387936 ], [ 106.8466516, -4.9993635 ], [ 106.8466516, -4.9993635 ], [ 106.6026347, -4.1669679 ], [ 106.6026347, -4.1669679 ], [ 106.3089401, -3.1639569 ], [ 106.1849797, -2.9705463 ], [ 105.9138163, -2.8699593 ], [ 105.836341, -2.6455413 ], [ 105.6813905, -2.31271 ], [ 105.6039153, -2.2352958 ], [ 105.1003261, -2.2198124 ], [ 104.9996082, -2.1423933 ], [ 104.9996082, -1.7862171 ], [ 105.0052938, -1.5138437 ] ] ] ] } }
]
}
