{
"type": "FeatureCollection",
"name": "SA",
"crs": { "type": "name", "properties": { "name": "urn:ogc:def:crs:OGC:1.3:CRS84" } },
"features": [
{ "type": "Feature", "properties": { "ISO3166-2": "AZ-SA", "admin_level": "5", "boundary": "administrative", "name": "Şəki İnzibati Ərazisi", "name:ar": "إدارة شكي", "name:az": "Şəki İnzibati Ərazisi", "name:de": "Şəki", "name:en": "Shaki", "name:es": "Şəki", "name:fr": "Shaki", "name:ru": "Шеки", "name:uk": "Шекі адміністративна територія", "type": "boundary", "wikidata": "Q234783", "wikipedia": "de:Şəki" }, "geometry": { "type": "MultiPolygon", "coordinates": [ [ [ [ 47.1342067, 41.1329482 ], [ 47.1638602, 41.1223715 ], [ 47.1764945, 41.1391061 ], [ 47.2007953, 41.1410049 ], [ 47.2055267, 41.1489306 ], [ 47.20394, 41.1600916 ], [ 47.1883576, 41.1851809 ], [ 47.2162014, 41.1985541 ], [ 47.2160898, 41.2073538 ], [ 47.1866711, 41.215131 ], [ 47.1898213, 41.2424473 ], [ 47.1873254, 41.2425135 ], [ 47.1784117, 41.2410997 ], [ 47.1740017, 41.2371343 ], [ 47.1712977, 41.2337458 ], [ 47.169606, 41.2280632 ], [ 47.1666505, 41.2180763 ], [ 47.1548223, 41.1947781 ], [ 47.1486854, 41.1773297 ], [ 47.1342067, 41.1329482 ] ] ] ] } }
]
}
