{
"type": "FeatureCollection",
"name": "OH",
"crs": { "type": "name", "properties": { "name": "urn:ogc:def:crs:OGC:1.3:CRS84" } },
"features": [
{ "type": "Feature", "properties": { "admin_level": "4", "alt_name:en": "Osh", "boundary": "administrative", "name": "Ош шаары", "name:ace": "Osh", "name:ar": "مدينة أوش", "name:arz": "اوش", "name:az": "Oş", "name:azb": "اوش", "name:ba": "Ош", "name:be": "Ош", "name:bg": "Ош", "name:bn": "ওশ", "name:ca": "Oix", "name:ce": "Ош", "name:ceb": "Osh", "name:crh": "Oş", "name:cs": "Oš", "name:cv": "Ош", "name:da": "Osj", "name:de": "Osch", "name:el": "Ος", "name:en": "Osh City", "name:eo": "Oŝo", "name:es": "Osh", "name:et": "Oš", "name:eu": "Ox", "name:fa": "شهر اوش", "name:fi": "Oš", "name:fr": "Och", "name:frr": "Osch (Steed)", "name:gl": "Osh", "name:he": "אוש", "name:hi": "ओश", "name:hr": "Oš", "name:hsb": "Oš", "name:hu": "Os", "name:hy": "Օշ", "name:id": "Osh", "name:ie": "Osh", "name:it": "Oš", "name:ja": "オシ", "name:ka": "ოში", "name:kaa": "Osh", "name:kk": "Ош қаласы", "name:kk-Arab": "وش قالاسى", "name:kk-Cyrl": "Ош қаласы", "name:kk-Latn": "Oş qalası", "name:ko": "오시", "name:ky": "Ош шаары", "name:ky-Arab": "وش شاارى", "name:lmo": "Oš", "name:lt": "Ošas", "name:lv": "Oša", "name:ml": "ഓഷ്", "name:mn": "Ош", "name:mr": "ओश", "name:ms": "Osh", "name:nl": "Oš", "name:nn": "Osj", "name:no": "Osj", "name:os": "Ош", "name:pl": "Osz", "name:pt": "Osh", "name:ro": "Oș", "name:ru": "Ош", "name:sah": "Ош", "name:sc": "Osh", "name:sco": "Osh", "name:sh": "Oš", "name:sk": "Oš", "name:sl": "Oš", "name:sq": "Osh", "name:sr": "Ош", "name:sv": "Osj", "name:ta": "ஓஷ் நகரம்", "name:tg": "Ӯш", "name:th": "ออช", "name:tk": "Oş", "name:tl": "Osh", "name:tr": "Oş", "name:tt": "Ош", "name:ug": "ئوش", "name:uk": "Ош", "name:ur": "اوش", "name:uz": "Oʻsh Shahri", "name:uz-Arab": "اۉش شهری", "name:uz-Cyrl": "Ўш шаҳри", "name:uz-Latn": "Oʻsh Shahri", "name:vep": "Oš", "name:vi": "Osh", "name:war": "Osh", "name:wuu": "奥什", "name:zh": "奧什", "type": "boundary", "ISO-3166": "KG-OH" }, "geometry": { "type": "MultiPolygon", "coordinates": [ [ [ [ 72.8112622, 40.5748244 ], [ 72.8115113, 40.5755101 ], [ 72.811969, 40.5765922 ], [ 72.8127, 40.5779699 ], [ 72.8132205, 40.578887 ], [ 72.8149745, 40.582533 ], [ 72.8167984, 40.5855478 ], [ 72.8173777, 40.5869818 ], [ 72.8178069, 40.5881551 ], [ 72.8181931, 40.5881388 ], [ 72.8183321, 40.5870463 ], [ 72.8206505, 40.5860504 ], [ 72.8223154, 40.5853004 ], [ 72.8223154, 40.5853004 ], [ 72.8240833, 40.5844316 ], [ 72.8222915, 40.5762586 ], [ 72.8220555, 40.5710105 ], [ 72.8222486, 40.5699836 ], [ 72.821562, 40.5696902 ], [ 72.821562, 40.569462 ], [ 72.818279, 40.5692827 ], [ 72.8170517, 40.5648261 ], [ 72.8201006, 40.5644448 ], [ 72.8225682, 40.5639395 ], [ 72.8245637, 40.5632385 ], [ 72.8215597, 40.55975 ], [ 72.8194474, 40.5581862 ], [ 72.8185247, 40.5572243 ], [ 72.8177522, 40.5552354 ], [ 72.8166579, 40.5524964 ], [ 72.8168295, 40.5477355 ], [ 72.8209065, 40.5475236 ], [ 72.8281163, 40.5463659 ], [ 72.8285883, 40.5463659 ], [ 72.8280018, 40.5440527 ], [ 72.8271006, 40.5428134 ], [ 72.8277873, 40.5411991 ], [ 72.8275512, 40.5361439 ], [ 72.8275512, 40.5361439 ], [ 72.8304669, 40.5363427 ], [ 72.837619, 40.5368304 ], [ 72.8417389, 40.5364879 ], [ 72.842617, 40.5343506 ], [ 72.8427029, 40.5335271 ], [ 72.8454602, 40.5335271 ], [ 72.8466296, 40.5332335 ], [ 72.8465116, 40.5317657 ], [ 72.8469193, 40.5307138 ], [ 72.8458679, 40.5289116 ], [ 72.8452992, 40.5269137 ], [ 72.8449881, 40.5257312 ], [ 72.8425205, 40.525723 ], [ 72.841866, 40.521678 ], [ 72.8400206, 40.5218737 ], [ 72.8407073, 40.5242551 ], [ 72.8395486, 40.5244345 ], [ 72.8397202, 40.5270115 ], [ 72.8386259, 40.527191 ], [ 72.837789, 40.5223304 ], [ 72.8358561, 40.5223714 ], [ 72.833991, 40.520422 ], [ 72.8374242, 40.5188561 ], [ 72.8401279, 40.5187337 ], [ 72.8403425, 40.5170658 ], [ 72.8400314, 40.5164541 ], [ 72.840305, 40.5149615 ], [ 72.8414154, 40.5148921 ], [ 72.8410989, 40.5134525 ], [ 72.8429818, 40.5133016 ], [ 72.8434646, 40.5118089 ], [ 72.8448701, 40.5116213 ], [ 72.8457391, 40.5115234 ], [ 72.8453958, 40.5091334 ], [ 72.8473608, 40.509738 ], [ 72.853143, 40.5118563 ], [ 72.8562228, 40.5129845 ], [ 72.8553926, 40.5096174 ], [ 72.8548347, 40.5040866 ], [ 72.8529618, 40.4979749 ], [ 72.8526246, 40.4921263 ], [ 72.8583538, 40.4893194 ], [ 72.8608643, 40.4872142 ], [ 72.8617656, 40.4866593 ], [ 72.8640615, 40.4863493 ], [ 72.8654228, 40.4844967 ], [ 72.8667532, 40.4824892 ], [ 72.8683625, 40.4796494 ], [ 72.8642142, 40.4781454 ], [ 72.8625083, 40.4780638 ], [ 72.8592467, 40.4770518 ], [ 72.8600584, 40.4760912 ], [ 72.8598009, 40.4727287 ], [ 72.8587106, 40.4717756 ], [ 72.8616406, 40.4707463 ], [ 72.8638605, 40.4700452 ], [ 72.8686026, 40.467515 ], [ 72.8702334, 40.4658499 ], [ 72.8722933, 40.4660131 ], [ 72.8724865, 40.4650337 ], [ 72.8736023, 40.4640053 ], [ 72.874246, 40.462438 ], [ 72.8772071, 40.4605932 ], [ 72.8786877, 40.4588626 ], [ 72.8804043, 40.4580299 ], [ 72.8762415, 40.4547155 ], [ 72.8611028, 40.4521845 ], [ 72.8611028, 40.4521845 ], [ 72.8596652, 40.4601359 ], [ 72.8596652, 40.4601359 ], [ 72.8571117, 40.4641357 ], [ 72.8555882, 40.4658498 ], [ 72.853936, 40.4670742 ], [ 72.8514469, 40.4687882 ], [ 72.8502131, 40.4707716 ], [ 72.8447658, 40.4689443 ], [ 72.8447658, 40.4689443 ], [ 72.842719, 40.4682577 ], [ 72.8437758, 40.466915 ], [ 72.8445053, 40.4654866 ], [ 72.8394306, 40.4633235 ], [ 72.8388727, 40.4635765 ], [ 72.8371775, 40.4651601 ], [ 72.836169, 40.4659274 ], [ 72.8322959, 40.4645479 ], [ 72.8324032, 40.4618052 ], [ 72.8361154, 40.4552419 ], [ 72.8366464, 40.4545072 ], [ 72.8366464, 40.4545072 ], [ 72.8337657, 40.4540582 ], [ 72.831856, 40.4537765 ], [ 72.8275108, 40.4519355 ], [ 72.8268886, 40.4534377 ], [ 72.8261697, 40.4560664 ], [ 72.8242707, 40.4598298 ], [ 72.8237879, 40.4609318 ], [ 72.8244531, 40.4623685 ], [ 72.824657, 40.463601 ], [ 72.8244209, 40.4653642 ], [ 72.8243458, 40.4670946 ], [ 72.8241312, 40.4676251 ], [ 72.8239758, 40.4701732 ], [ 72.8242707, 40.4706451 ], [ 72.8247213, 40.4730936 ], [ 72.8240883, 40.4737465 ], [ 72.823112, 40.4757297 ], [ 72.8230905, 40.4761133 ], [ 72.8216529, 40.4772395 ], [ 72.8199255, 40.4763255 ], [ 72.8188956, 40.4755583 ], [ 72.8180802, 40.4769212 ], [ 72.8170609, 40.4764969 ], [ 72.8162134, 40.4756399 ], [ 72.8154087, 40.4763173 ], [ 72.8129089, 40.4759664 ], [ 72.8128981, 40.4735261 ], [ 72.8120398, 40.4734037 ], [ 72.8125334, 40.4720571 ], [ 72.8102696, 40.471853 ], [ 72.8099263, 40.4739505 ], [ 72.8098726, 40.4744402 ], [ 72.808156, 40.4755175 ], [ 72.8077805, 40.4762112 ], [ 72.8053021, 40.4747177 ], [ 72.8048086, 40.4753135 ], [ 72.803446, 40.4752237 ], [ 72.8034246, 40.4757787 ], [ 72.8022981, 40.4755583 ], [ 72.8022981, 40.4751747 ], [ 72.7980602, 40.4751421 ], [ 72.7978885, 40.4757297 ], [ 72.7913761, 40.4756318 ], [ 72.7865589, 40.4759337 ], [ 72.7842273, 40.4749252 ], [ 72.7842273, 40.4749252 ], [ 72.7876439, 40.4699743 ], [ 72.7896609, 40.4657953 ], [ 72.7810253, 40.4639697 ], [ 72.7771511, 40.4631506 ], [ 72.7763985, 40.4630797 ], [ 72.7712585, 40.4625951 ], [ 72.762474, 40.461767 ], [ 72.7624096, 40.4622078 ], [ 72.7598347, 40.4619955 ], [ 72.760457, 40.4563792 ], [ 72.7615679, 40.4515515 ], [ 72.7617181, 40.4493798 ], [ 72.7602589, 40.4450198 ], [ 72.7585638, 40.4397614 ], [ 72.7590573, 40.436838 ], [ 72.7600444, 40.4342412 ], [ 72.7621258, 40.4283939 ], [ 72.7631718, 40.4255009 ], [ 72.7631718, 40.4255009 ], [ 72.7619268, 40.4248585 ], [ 72.7565839, 40.4228166 ], [ 72.7551247, 40.4197619 ], [ 72.7514769, 40.4158411 ], [ 72.7499105, 40.4137499 ], [ 72.7464558, 40.4121815 ], [ 72.7414777, 40.4135702 ], [ 72.7340748, 40.4155144 ], [ 72.7308132, 40.4160862 ], [ 72.7336885, 40.4142401 ], [ 72.7342893, 40.4135212 ], [ 72.7348687, 40.4115117 ], [ 72.735491, 40.4100249 ], [ 72.7365424, 40.4090936 ], [ 72.7387955, 40.4082113 ], [ 72.7405335, 40.4073617 ], [ 72.7421429, 40.4016754 ], [ 72.7400185, 40.3996329 ], [ 72.7385594, 40.3990609 ], [ 72.7358772, 40.3989302 ], [ 72.7318003, 40.3990773 ], [ 72.7318003, 40.3990773 ], [ 72.7311586, 40.3996323 ], [ 72.7295063, 40.4007271 ], [ 72.7275751, 40.4029494 ], [ 72.7255581, 40.4053841 ], [ 72.7247213, 40.40808 ], [ 72.7236913, 40.4100243 ], [ 72.7189921, 40.4138311 ], [ 72.7154086, 40.4178173 ], [ 72.7100657, 40.419941 ], [ 72.707598, 40.4207742 ], [ 72.7062462, 40.4210519 ], [ 72.7028988, 40.4205291 ], [ 72.7007316, 40.4203168 ], [ 72.697985, 40.4203168 ], [ 72.6955388, 40.4202841 ], [ 72.6927064, 40.4203821 ], [ 72.69114, 40.4206598 ], [ 72.6897667, 40.4211499 ], [ 72.688329, 40.422424 ], [ 72.6869558, 40.4247273 ], [ 72.6856683, 40.4307873 ], [ 72.6846383, 40.4325186 ], [ 72.6836298, 40.4335312 ], [ 72.6833294, 40.4349685 ], [ 72.6834582, 40.436912 ], [ 72.6822561, 40.4375287 ], [ 72.6808828, 40.4390476 ], [ 72.6770418, 40.4436855 ], [ 72.6774281, 40.4444367 ], [ 72.6778358, 40.4451716 ], [ 72.6778358, 40.446233 ], [ 72.6783078, 40.4472781 ], [ 72.6788228, 40.4484538 ], [ 72.6789087, 40.4491723 ], [ 72.6788014, 40.4498417 ], [ 72.6781147, 40.4506582 ], [ 72.6781147, 40.4514746 ], [ 72.6785224, 40.4525686 ], [ 72.6791661, 40.4540381 ], [ 72.6799601, 40.4565688 ], [ 72.6826208, 40.4608301 ], [ 72.684316, 40.466544 ], [ 72.6849383, 40.4684702 ], [ 72.6855605, 40.4703801 ], [ 72.6855176, 40.4710821 ], [ 72.685067, 40.4718656 ], [ 72.6844018, 40.4718656 ], [ 72.6843083, 40.472639 ], [ 72.6849306, 40.4741733 ], [ 72.6855958, 40.4750221 ], [ 72.685746, 40.4753812 ], [ 72.6863253, 40.4769971 ], [ 72.6864326, 40.477242 ], [ 72.6866686, 40.4777153 ], [ 72.6870763, 40.4785804 ], [ 72.6873982, 40.4791679 ], [ 72.6873553, 40.479527 ], [ 72.6873124, 40.4799677 ], [ 72.6875484, 40.4806858 ], [ 72.6879776, 40.481306 ], [ 72.6875055, 40.4817793 ], [ 72.6876342, 40.4822037 ], [ 72.6880205, 40.4823669 ], [ 72.6888788, 40.4823016 ], [ 72.6896513, 40.4836562 ], [ 72.6900375, 40.4835746 ], [ 72.6902092, 40.4836399 ], [ 72.6914966, 40.487165 ], [ 72.6907885, 40.4873119 ], [ 72.691046, 40.4877199 ], [ 72.6911747, 40.4878994 ], [ 72.691282, 40.4885359 ], [ 72.6896513, 40.4900046 ], [ 72.6889002, 40.4910653 ], [ 72.6886213, 40.4914896 ], [ 72.6878917, 40.4913591 ], [ 72.6874197, 40.4912285 ], [ 72.6860249, 40.4917997 ], [ 72.6868403, 40.4929583 ], [ 72.6871622, 40.4933662 ], [ 72.6873553, 40.4938721 ], [ 72.6872909, 40.4942311 ], [ 72.686969, 40.4944595 ], [ 72.6863039, 40.4948185 ], [ 72.6853597, 40.4957323 ], [ 72.6853597, 40.4963361 ], [ 72.6858962, 40.4968256 ], [ 72.6857245, 40.497772 ], [ 72.6849949, 40.4988163 ], [ 72.6838577, 40.4999421 ], [ 72.682585, 40.5009688 ], [ 72.6821774, 40.5015562 ], [ 72.6816838, 40.5026657 ], [ 72.6808899, 40.5033183 ], [ 72.6793235, 40.5035631 ], [ 72.6774137, 40.5039383 ], [ 72.6772464, 40.5042257 ], [ 72.6776541, 40.5047478 ], [ 72.6785768, 40.5050252 ], [ 72.6791776, 40.5055636 ], [ 72.679993, 40.5061509 ], [ 72.6807655, 40.5065588 ], [ 72.6807011, 40.506983 ], [ 72.6794566, 40.5069667 ], [ 72.6791991, 40.5072603 ], [ 72.6802076, 40.5081576 ], [ 72.6805724, 40.5084513 ], [ 72.6809586, 40.5086797 ], [ 72.6818813, 40.5089244 ], [ 72.6823748, 40.5092344 ], [ 72.6820958, 40.5095607 ], [ 72.6814092, 40.5099196 ], [ 72.6810015, 40.5104743 ], [ 72.6813877, 40.5107353 ], [ 72.6817311, 40.5113389 ], [ 72.6806796, 40.5116489 ], [ 72.680767, 40.512165 ], [ 72.6818399, 40.5125892 ], [ 72.6826338, 40.5130133 ], [ 72.6837281, 40.5136821 ], [ 72.6835692, 40.5143605 ], [ 72.6836227, 40.5152378 ], [ 72.6836227, 40.5152378 ], [ 72.6876068, 40.5153489 ], [ 72.6875302, 40.5188727 ], [ 72.6917052, 40.5187582 ], [ 72.6931859, 40.5200472 ], [ 72.6956749, 40.5200305 ], [ 72.6968957, 40.5203694 ], [ 72.6981069, 40.5187856 ], [ 72.7002956, 40.5183288 ], [ 72.7008749, 40.5178721 ], [ 72.7039863, 40.5176763 ], [ 72.7048017, 40.517448 ], [ 72.7111834, 40.5174777 ], [ 72.711103, 40.5191497 ], [ 72.7094507, 40.5190355 ], [ 72.7091481, 40.52039 ], [ 72.7112175, 40.5215096 ], [ 72.7123548, 40.5214117 ], [ 72.7125158, 40.5208293 ], [ 72.7146971, 40.5205606 ], [ 72.7146649, 40.5196064 ], [ 72.7155769, 40.5196961 ], [ 72.719214, 40.5192231 ], [ 72.7210486, 40.5185298 ], [ 72.7217511, 40.5174491 ], [ 72.7217084, 40.5168537 ], [ 72.7233499, 40.5169475 ], [ 72.7260341, 40.5179747 ], [ 72.7279901, 40.5185298 ], [ 72.729224, 40.5181913 ], [ 72.7300018, 40.5182199 ], [ 72.7303505, 40.5179507 ], [ 72.7313054, 40.5179548 ], [ 72.7312839, 40.5177346 ], [ 72.7316916, 40.5176816 ], [ 72.7325982, 40.5174369 ], [ 72.7360314, 40.5175389 ], [ 72.7363318, 40.5172615 ], [ 72.7407789, 40.5175919 ], [ 72.7423239, 40.5184279 ], [ 72.7447379, 40.5187419 ], [ 72.746315, 40.5183178 ], [ 72.7473129, 40.5183261 ], [ 72.7474844, 40.5190233 ], [ 72.7517921, 40.5200998 ], [ 72.7539949, 40.5207419 ], [ 72.7551536, 40.5217206 ], [ 72.7553004, 40.5219756 ], [ 72.7550751, 40.5226444 ], [ 72.7555686, 40.5227749 ], [ 72.7575642, 40.5216657 ], [ 72.7618879, 40.5236271 ], [ 72.7678639, 40.5254702 ], [ 72.7697253, 40.5261145 ], [ 72.7714205, 40.528088 ], [ 72.7712703, 40.5309584 ], [ 72.7719569, 40.5312846 ], [ 72.7706694, 40.5334211 ], [ 72.7718067, 40.536911 ], [ 72.7727937, 40.5374817 ], [ 72.7724504, 40.5382319 ], [ 72.7727723, 40.5384683 ], [ 72.7724504, 40.5389575 ], [ 72.7729869, 40.5411671 ], [ 72.7666139, 40.5423412 ], [ 72.7666569, 40.5443957 ], [ 72.7649832, 40.5445099 ], [ 72.7649188, 40.5451784 ], [ 72.7682662, 40.5466133 ], [ 72.7677727, 40.5470576 ], [ 72.7687114, 40.5487818 ], [ 72.7699453, 40.5501351 ], [ 72.7706963, 40.5493076 ], [ 72.771973, 40.5499517 ], [ 72.7723539, 40.549544 ], [ 72.7734804, 40.5499557 ], [ 72.7740115, 40.5491324 ], [ 72.7747035, 40.5474204 ], [ 72.7749395, 40.5462545 ], [ 72.7769458, 40.549756 ], [ 72.7768385, 40.5500128 ], [ 72.7770585, 40.5503348 ], [ 72.7741992, 40.553135 ], [ 72.772311, 40.5550833 ], [ 72.7721983, 40.5552463 ], [ 72.7710235, 40.5577773 ], [ 72.7697414, 40.5609399 ], [ 72.7689636, 40.5614656 ], [ 72.7676815, 40.5605487 ], [ 72.7676493, 40.5603245 ], [ 72.7656202, 40.5591068 ], [ 72.7651484, 40.5595965 ], [ 72.7669546, 40.5608666 ], [ 72.7685793, 40.562244 ], [ 72.7686625, 40.5624765 ], [ 72.7686846, 40.5628972 ], [ 72.7671318, 40.5648338 ], [ 72.7659644, 40.5662895 ], [ 72.7684223, 40.5676762 ], [ 72.7678853, 40.568206 ], [ 72.7674884, 40.5692899 ], [ 72.7688885, 40.5711399 ], [ 72.7667164, 40.5730173 ], [ 72.7652519, 40.5739504 ], [ 72.7605527, 40.5753276 ], [ 72.7605527, 40.5753276 ], [ 72.7602166, 40.575506 ], [ 72.7602166, 40.575506 ], [ 72.7603262, 40.5760107 ], [ 72.760583, 40.5769228 ], [ 72.760583, 40.5769228 ], [ 72.7607124, 40.5773313 ], [ 72.7607124, 40.5773313 ], [ 72.7617225, 40.5776277 ], [ 72.7650056, 40.5767477 ], [ 72.766529, 40.5747919 ], [ 72.766529, 40.5747919 ], [ 72.7670655, 40.5741399 ], [ 72.7675376, 40.5738629 ], [ 72.769383, 40.5733413 ], [ 72.7733741, 40.5706357 ], [ 72.7740178, 40.5691687 ], [ 72.7741036, 40.5675387 ], [ 72.774447, 40.5667237 ], [ 72.7755628, 40.5654197 ], [ 72.7755628, 40.5654197 ], [ 72.7802405, 40.5674898 ], [ 72.7843175, 40.5677343 ], [ 72.7846608, 40.5684189 ], [ 72.7849827, 40.5684352 ], [ 72.7851758, 40.5677669 ], [ 72.7872357, 40.5678321 ], [ 72.7944502, 40.5678718 ], [ 72.794936, 40.5713662 ], [ 72.7949545, 40.5714994 ], [ 72.7949115, 40.574042 ], [ 72.7952549, 40.57929 ], [ 72.7976367, 40.578524 ], [ 72.8017995, 40.5784588 ], [ 72.8068635, 40.5772039 ], [ 72.8064987, 40.5754274 ], [ 72.8112622, 40.5748244 ] ] ] ] } }
]
}
