{
"type": "FeatureCollection",
"name": "Минск",
"crs": { "type": "name", "properties": { "name": "urn:ogc:def:crs:OGC:1.3:CRS84" } },
"features": [
{ "type": "Feature", "properties": { "ISO3166": "BY-HM", "addr:country": "BY", "admin_level": "4", "alt_name:be": "Менск", "alt_name:gl": "Мінск", "alt_name:vi": "Minsk;Minxcơva", "boundary": "administrative", "capital": "yes", "int_name": "Minsk", "is_in:country": "Belarus", "is_in:country_code": "BY", "name": "Мінск", "name:be": "Мінск", "name:be-tarask": "Менск", "name:be-tarask:word_stress": "Менск", "name:be:word_stress": "Мінск", "name:ckb": "مینسک", "name:cs": "Minsk", "name:csb": "Mińsk", "name:cu": "Мѣньскъ", "name:cv": "Минск", "name:de": "Minsk", "name:el": "Μινσκ", "name:en": "Minsk", "name:eo": "Minsko", "name:es": "Minsk", "name:et": "Minsk", "name:fa": "مینسک", "name:fi": "Minsk", "name:fr": "Minsk", "name:ga": "Minsc", "name:gl": "Minsk", "name:he": "מינסק", "name:hi": "मिन्‍स्‍क", "name:hr": "Minsk", "name:hu": "Minszk", "name:hy": "Մինսկ", "name:ia": "Minsk", "name:io": "Minsk", "name:is": "Minsk", "name:ja": "ミンスク", "name:jbo": "misk", "name:ka": "მინსკი", "name:kk": "Минск", "name:kn": "ಮಿನ್ಸ್ಕ್", "name:ko": "민스크", "name:ku": "Mînsk", "name:kv": "Минск", "name:ky": "Минск", "name:la": "Minscum", "name:lt": "Minskas", "name:lv": "Minska", "name:mhr": "Минск", "name:mk": "Минск", "name:ml": "മിൻസ്ക്", "name:mr": "मिन्‍स्‍क", "name:myv": "Минск ош", "name:nds": "Minsk", "name:nl": "Minsk", "name:no": "Minsk", "name:os": "Минск", "name:pl": "Mińsk", "name:pnb": "منسک", "name:prefix": "горад", "name:prefix:be": "горад", "name:prefix:ru": "город", "name:ro": "Minsk", "name:ru": "Минск", "name:rue": "Мінск", "name:sah": "Минскай", "name:sk": "Minsk", "name:sl": "Minsk", "name:sr": "Минск", "name:sv": "Minsk", "name:szl": "Mińsk", "name:ta": "மின்ஸ்க்", "name:tg": "Минск", "name:th": "มินสก์", "name:tt": "Минск", "name:udm": "Минск", "name:ug": "مىنىسكى", "name:uk": "Мінськ", "name:ur": "منسک", "name:vi": "Minxcơ", "name:vo": "Minsk", "name:wuu": "明斯克", "name:yi": "מינסק", "name:zh": "明斯克", "nat_name": "Мінск", "old_name": "Менск", "old_name:be": "Менск", "place": "city", "type": "boundary", "website": "https://minsk.gov.by/", "wikidata": "Q2280", "wikipedia": "be:Мінск" }, "geometry": { "type": "MultiPolygon", "coordinates": [ [ [ [ 27.6852789, 53.9571666 ], [ 27.6860439, 53.9576132 ], [ 27.6851743, 53.9580355 ], [ 27.6926371, 53.9612214 ], [ 27.7073247, 53.9611698 ], [ 27.7245235, 53.9582747 ], [ 27.7397805, 53.9629899 ], [ 27.742925, 53.9477117 ], [ 27.7348028, 53.9413141 ], [ 27.732789, 53.9405241 ], [ 27.7343281, 53.9356295 ], [ 27.718199, 53.9311627 ], [ 27.717066, 53.9298828 ], [ 27.7178257, 53.9295873 ], [ 27.7266159, 53.9250839 ], [ 27.7406111, 53.9280741 ], [ 27.74914, 53.9298963 ], [ 27.7466382, 53.9205727 ], [ 27.7520168, 53.9190427 ], [ 27.745449, 53.9139686 ], [ 27.7457064, 53.9135199 ], [ 27.7460927, 53.9138927 ], [ 27.7466028, 53.9129123 ], [ 27.7778045, 53.8988781 ], [ 27.7964442, 53.9006535 ], [ 27.8138525, 53.9005743 ], [ 27.82956, 53.903445 ], [ 27.8411286, 53.8992821 ], [ 27.8490752, 53.8992799 ], [ 27.8490114, 53.8757587 ], [ 27.834522, 53.8738368 ], [ 27.822109, 53.8726745 ], [ 27.8037779, 53.8737898 ], [ 27.7661414, 53.8731635 ], [ 27.7542732, 53.8671155 ], [ 27.7606678, 53.8646225 ], [ 27.7712706, 53.865716 ], [ 27.7830162, 53.8656843 ], [ 27.7853018, 53.8677846 ], [ 27.7966091, 53.8596793 ], [ 27.798187, 53.8592939 ], [ 27.7978753, 53.8590209 ], [ 27.8114698, 53.8548981 ], [ 27.8184363, 53.8548431 ], [ 27.8159196, 53.8446731 ], [ 27.7992867, 53.8410153 ], [ 27.7824924, 53.8389863 ], [ 27.7813495, 53.8373149 ], [ 27.7825305, 53.8356414 ], [ 27.7820828, 53.8265314 ], [ 27.769757, 53.8254668 ], [ 27.7556647, 53.8234884 ], [ 27.7346197, 53.8337639 ], [ 27.734058, 53.8340246 ], [ 27.7182456, 53.8381548 ], [ 27.7141226, 53.8340533 ], [ 27.7025345, 53.8298251 ], [ 27.7019533, 53.828091 ], [ 27.7103062, 53.8197968 ], [ 27.706443, 53.8145125 ], [ 27.6865126, 53.8050978 ], [ 27.6782862, 53.8171932 ], [ 27.6732495, 53.8184199 ], [ 27.6585211, 53.8184843 ], [ 27.6566508, 53.8177457 ], [ 27.6688664, 53.8292388 ], [ 27.6789687, 53.8331321 ], [ 27.6709858, 53.8420011 ], [ 27.6550345, 53.8361078 ], [ 27.6459949, 53.8338982 ], [ 27.6387285, 53.8334035 ], [ 27.627609, 53.8333731 ], [ 27.6079232, 53.833079 ], [ 27.6029794, 53.8303766 ], [ 27.5915801, 53.8329448 ], [ 27.5886491, 53.825963 ], [ 27.5927009, 53.823897 ], [ 27.5988336, 53.8023372 ], [ 27.5962173, 53.7951595 ], [ 27.5896623, 53.7992098 ], [ 27.5931024, 53.800016 ], [ 27.5908338, 53.803701 ], [ 27.5869297, 53.8020577 ], [ 27.5851241, 53.8015537 ], [ 27.5745135, 53.8169995 ], [ 27.5724517, 53.8177167 ], [ 27.5745665, 53.8180614 ], [ 27.5732071, 53.8241952 ], [ 27.5743283, 53.8326351 ], [ 27.5636871, 53.8327149 ], [ 27.5538414, 53.8328217 ], [ 27.5362243, 53.8345629 ], [ 27.5330636, 53.8332589 ], [ 27.5267015, 53.8359246 ], [ 27.5147613, 53.8372366 ], [ 27.4991264, 53.8389373 ], [ 27.4780458, 53.8363437 ], [ 27.4625171, 53.8429065 ], [ 27.4477536, 53.8448483 ], [ 27.437165, 53.8491123 ], [ 27.4306978, 53.8542454 ], [ 27.4252452, 53.8633204 ], [ 27.4222341, 53.8696052 ], [ 27.3996852, 53.8677662 ], [ 27.3965841, 53.8672304 ], [ 27.3966479, 53.8643299 ], [ 27.399822, 53.8605343 ], [ 27.3840905, 53.8655402 ], [ 27.3825632, 53.8663232 ], [ 27.3805384, 53.8722933 ], [ 27.3947856, 53.8747123 ], [ 27.4085359, 53.8804904 ], [ 27.4114494, 53.882054 ], [ 27.4127115, 53.8789153 ], [ 27.4163289, 53.8814741 ], [ 27.4140194, 53.8864444 ], [ 27.399725, 53.8974996 ], [ 27.399721583592274, 53.89793285115821 ], [ 27.4083976, 53.89741 ], [ 27.4099823, 53.9131456 ], [ 27.4138138, 53.9206991 ], [ 27.4199584, 53.9297073 ], [ 27.4285473, 53.938064 ], [ 27.437531, 53.9457681 ], [ 27.4460131, 53.9516218 ], [ 27.4596336, 53.9617371 ], [ 27.4613613, 53.9626945 ], [ 27.4779655, 53.9672388 ], [ 27.491687, 53.9680221 ], [ 27.5091555, 53.9693234 ], [ 27.5242505, 53.969309 ], [ 27.5419634, 53.9700112 ], [ 27.5565602, 53.9706805 ], [ 27.5725331, 53.971333 ], [ 27.5895279, 53.9713959 ], [ 27.6017381, 53.9690059 ], [ 27.6192145, 53.9628364 ], [ 27.6309228, 53.9617797 ], [ 27.6373141, 53.9671535 ], [ 27.6384619, 53.9625839 ], [ 27.6364489, 53.9621649 ], [ 27.6330096, 53.9578412 ], [ 27.6399171, 53.9554119 ], [ 27.6641829, 53.9508307 ], [ 27.6855474, 53.9542845 ], [ 27.6864897, 53.9565108 ], [ 27.6852789, 53.9571666 ] ], [ [ 27.7301304, 53.8448918 ], [ 27.7306903, 53.8480561 ], [ 27.7260688, 53.8724751 ], [ 27.7094331, 53.8758651 ], [ 27.6934405, 53.8723061 ], [ 27.6849296, 53.8623975 ], [ 27.6843643, 53.8610759 ], [ 27.6896191, 53.8562964 ], [ 27.7081937, 53.8478004 ], [ 27.7107875, 53.8466094 ], [ 27.7230162, 53.8399161 ], [ 27.7301304, 53.8448918 ] ], [ [ 27.7301479, 53.88612 ], [ 27.7517235, 53.8845857 ], [ 27.7641781, 53.887298 ], [ 27.7711965, 53.8945056 ], [ 27.7621421, 53.8968139 ], [ 27.7377451, 53.8937685 ], [ 27.7347661, 53.8916492 ], [ 27.7301479, 53.88612 ] ] ], [ [ [ 28.0694633, 53.8849558 ], [ 28.0724732, 53.8733973 ], [ 28.0643177, 53.8708754 ], [ 28.0619031, 53.8702287 ], [ 28.0590078, 53.870424 ], [ 28.05719, 53.8623648 ], [ 28.04831, 53.867183 ], [ 28.0412432, 53.8718886 ], [ 28.0241097, 53.8816382 ], [ 28.0203854, 53.8858144 ], [ 28.0080684, 53.8941516 ], [ 27.9999589, 53.901353 ], [ 28.0044288, 53.9033608 ], [ 28.0132097, 53.9174234 ], [ 28.0061748, 53.9219885 ], [ 28.0151346, 53.9209376 ], [ 28.03253, 53.9104822 ], [ 28.0557315, 53.8942375 ], [ 28.0630945, 53.8891358 ], [ 28.0694633, 53.8849558 ] ] ], [ [ [ 27.9131796, 53.8779543 ], [ 27.9057408, 53.8703976 ], [ 27.8884184, 53.8697558 ], [ 27.8868379, 53.8758786 ], [ 27.8895637, 53.8771161 ], [ 27.8904661, 53.8827226 ], [ 27.9031429, 53.8878763 ], [ 27.9131796, 53.8779543 ] ] ] ] } }
]
}
