{
"type": "FeatureCollection",
"name": "TB",
"crs": { "type": "name", "properties": { "name": "urn:ogc:def:crs:OGC:1.3:CRS84" } },
"features": [
{ "type": "Feature", "properties": { "ISO3166-2": "GE-TB", "admin_level": "4", "alt_name:av": "Туплис", "alt_name:ca": "Tiflis", "alt_name:ko": "뜨빌리씨", "alt_name:zh": "提比里斯", "boundary": "administrative", "flag": "https://upload.wikimedia.org/wikipedia/commons/3/31/Flag_of_Tbilisi.svg", "image:seal": "https://upload.wikimedia.org/wikipedia/commons/4/4f/Seal_of_Tbilisi%2C_Georgia.svg", "int_name": "Tbilisi", "name": "თბილისი", "name:ab": "Қарҭ", "name:ace": "Tbilisi", "name:ady": "Тбилиси", "name:af": "Tbilisi", "name:am": "ትብሊሲ", "name:an": "Tbilisi", "name:ang": "Tiflis", "name:ar": "تبليسي", "name:arc": "ܛܒܝܠܝܣܝ", "name:ary": "تبيليسي", "name:arz": "تبليسى", "name:ast": "Tblisi", "name:av": "Туплис", "name:awa": "थ्बिलीसी", "name:ay": "Tbilisi", "name:az": "Tbilisi", "name:azb": "تفلیس", "name:ba": "Тбилиси", "name:ban": "Tbilisi", "name:bat-smg": "Tbėlėsis", "name:bcl": "Tbilisi", "name:be": "Тбілісі", "name:be-tarask": "Тбілісі", "name:bew": "Tiplis", "name:bg": "Тбилиси", "name:bi": "Tbilisi", "name:bn": "তিবি‌লিসি", "name:bo": "ཁྲེ་བྷི་ལི་སི།", "name:br": "Tbilisi", "name:bs": "Tbilisi", "name:bxr": "Тбилиси", "name:ca": "Tbilissi", "name:cbk_zam": "Tbilisi", "name:cdo": "Tbilisi", "name:ce": "Тиблиси", "name:ceb": "K'alak'i T'bilisi", "name:ckb": "تبلیس", "name:crh": "Tiflis", "name:cs": "Tbilisi", "name:cv": "Тбилиси", "name:cy": "Tbilisi", "name:da": "Tbilisi", "name:de": "Tiflis", "name:diq": "Tıflis", "name:dz": "ཊི་བི་ལི་སི", "name:ee": "Tbilisi", "name:el": "Τιφλίδα", "name:en": "Tbilisi", "name:eo": "Tbiliso", "name:es": "Tiflis", "name:et": "Thbilisi", "name:eu": "Tbilisi", "name:fa": "تفلیس", "name:fi": "Tbilisi", "name:fj": "Tbilisi", "name:fo": "Tbilisi", "name:fr": "Tbilissi", "name:frp": "Tbilisi", "name:frr": "Tiflis", "name:fy": "Tbilisy", "name:ga": "Tbilisi", "name:gag": "Tbilisi", "name:gd": "Tbilisi", "name:gl": "Tbilisi", "name:glk": "تفليس", "name:gn": "Tivilísi", "name:gu": "ટિબિલિસિ", "name:gv": "Tbilisi", "name:hak": "Tbilisi", "name:he": "טביליסי", "name:hi": "तिब्लिसी", "name:hif": "Tbilisi", "name:hr": "Tbilisi", "name:hsb": "Tbilisi", "name:ht": "Tbilisi", "name:hu": "Tbiliszi", "name:hy": "Թբիլիսի", "name:hyw": "Թիֆլիս", "name:ia": "Tbilisi", "name:id": "Tbilisi", "name:ie": "Tbilisi", "name:ilo": "Tbilisi", "name:inh": "Каьлаке", "name:io": "Tbilisi", "name:is": "Tíblisi", "name:it": "Tbilisi", "name:ja": "トビリシ", "name:jv": "Tiflis", "name:ka": "თბილისი", "name:kaa": "Tbilisi", "name:kab": "Tbilisi", "name:kbd": "Тбилиси", "name:kg": "Tbilisi", "name:kk": "Тбилиси", "name:kn": "ಟಿಬಿಲಿಸಿ", "name:ko": "트빌리시", "name:ku": "Tibîlîsî", "name:kv": "Тбилиси", "name:ky": "Тбилиси", "name:la": "Tiphlis", "name:lb": "Tiflis", "name:lbe": "Ттуплис", "name:lez": "Тбилиси", "name:lfn": "Tbilisi", "name:lij": "Tiblisi", "name:lmo": "Tbilisi", "name:lt": "Tbilisis", "name:ltg": "Tbilisi", "name:lv": "Tbilisi", "name:mdf": "Тбилиси", "name:mg": "Tbilisi", "name:mhr": "Тбилиси", "name:mi": "Tbilisi", "name:mk": "Тбилиси", "name:ml": "റ്റ്ബിലിസി", "name:mn": "Тбилиси", "name:mr": "त्बिलिसी", "name:mrj": "Тбилиси", "name:ms": "Tbilisi", "name:myv": "Тбилиси ош", "name:mzn": "تفلیس", "name:nah": "Tbilisi", "name:nan": "Tbilisi", "name:nia": "Tbilisi", "name:nl": "Tbilisi", "name:nn": "Tbilisi", "name:no": "Tbilisi", "name:nov": "Tbilisi", "name:nrm": "Tbilisi", "name:nv": "Tó Sido (Dził Daantsaaítah Bilagáana Bikéyah)", "name:oc": "Tbilissi", "name:olo": "Tbiliisi", "name:or": "ତିଲିସି", "name:os": "Тбилис", "name:pa": "ਤਬੀਲਿਸੀ", "name:pam": "Tbilisi", "name:pap": "Tbilisi", "name:pih": "Tbilisi", "name:pl": "Tbilisi", "name:pms": "Tbilisi", "name:pnb": "تبلیسی", "name:ps": "تفلیس", "name:pt": "Tiblíssi", "name:qu": "Tbilisi", "name:ro": "Tbilisi", "name:roa-tara": "Tbilisi", "name:ru": "Тбилиси", "name:rue": "Тбилиси", "name:sah": "Тбилиси", "name:sat": "ᱛᱤᱵᱤᱞᱤᱥᱤ", "name:sc": "Tbilisi", "name:scn": "Tbilisi", "name:sco": "Tbilisi", "name:sd": "تبليسي", "name:se": "Tbilisi", "name:sh": "Tbilisi", "name:simple": "Tbilisi", "name:sk": "Tbilisi", "name:sl": "Tbilisi", "name:smn": "Tbilisi", "name:sn": "Tbilisi", "name:sq": "Tbilisi", "name:sr": "Тбилиси", "name:sv": "Tbilisi", "name:sw": "Tbilisi", "name:szl": "Tbilisi", "name:ta": "திபிலீசி", "name:tet": "Tbilisi", "name:tg": "Тифлис", "name:th": "ทบิลิซิ", "name:tk": "Tiflis", "name:tl": "Tbilisi", "name:tly": "Tbilisi", "name:tr": "Tiflis", "name:tt": "Tbilisi", "name:tum": "Tbilisi", "name:tw": "Tbilisi", "name:ty": "Tbilisi", "name:udm": "Тбилиси", "name:ug": "تبىلىسى", "name:uk": "Тбілісі", "name:ur": "تبلیسی", "name:uz": "Tbilisi", "name:vep": "Tbilis", "name:vi": "Tbilisi", "name:vls": "Tbilisi", "name:vo": "Tbilisi", "name:vro": "Thbilisi", "name:war": "Tbilisi", "name:wo": "Tibilisi", "name:wuu": "第比利斯", "name:xmf": "ქართი", "name:yi": "טביליסי", "name:yo": "Tbilisi", "name:yue": "第比利斯", "name:zea": "Tbilisi", "name:zh": "第比利斯", "name:zh_min_nan": "Tbilisi", "old_name": "ტფილისი", "old_name:en": "Tiflisi", "old_name:ru": "Тифлис", "place": "city", "population": "1241700", "population:date": "2023", "source:population": "https://www.geostat.ge/", "type": "boundary", "website": "https://tbilisi.gov.ge/", "wikidata": "Q994", "wikimedia_commons": "Category:Tbilisi", "wikipedia": "ka:თბილისი" }, "geometry": { "type": "MultiPolygon", "coordinates": [ [ [ [ 44.8773839, 41.7629274 ], [ 44.9296697, 41.7667993 ], [ 45.0061779, 41.7375387 ], [ 45.017012, 41.6974022 ], [ 44.99661, 41.665163 ], [ 44.9615346, 41.641328 ], [ 44.9004956, 41.622578 ], [ 44.9062903, 41.6354842 ], [ 44.8429876, 41.6574648 ], [ 44.7970135, 41.6480251 ], [ 44.8088423, 41.634473 ], [ 44.6953332, 41.6431653 ], [ 44.633616, 41.6379352 ], [ 44.5962016, 41.6877513 ], [ 44.601608181683105, 41.699448275722894 ], [ 44.6443916, 41.6925524 ], [ 44.6953922, 41.7211897 ], [ 44.677313, 41.7364803 ], [ 44.6952995, 41.7462685 ], [ 44.6597135, 41.7865276 ], [ 44.6947303, 41.812953 ], [ 44.7503078, 41.8208309 ], [ 44.7746944, 41.8438777 ], [ 44.9078109, 41.8130613 ], [ 44.883346, 41.7957716 ], [ 44.8773839, 41.7629274 ] ] ] ] } }
]
}
