{
"type": "FeatureCollection",
"name": "J",
"crs": { "type": "name", "properties": { "name": "urn:ogc:def:crs:OGC:1.3:CRS84" } },
"features": [
{ "type": "Feature", "properties": { "ISO3166-2": "KG-J", "admin_level": "4", "alt_name:ja": "ジャララバード", "alt_name:ky": "Жалалабат областы", "boundary": "administrative", "int_name": "Jalal-Abad oblusu", "is_in:country": "Kyrgyzstan", "is_in:country_code": "KG", "name": "Жалал-Абад облусу", "name:ace": "Propinsi Jalal-Abad", "name:ar": "جلال أباد أوبلاستي", "name:az": "Cəlalabad vilayəti", "name:ba": "Жалал-Абад өлкәһе", "name:be": "Джалал-Абадская вобласць", "name:be-tarask": "Джалал-Абадзкая вобласьць", "name:bg": "Джалалабадска област", "name:ca": "Província de Jalal-Abad", "name:ce": "Джалал-Абадан область", "name:ceb": "Jalal-Abad oblast", "name:cs": "Džalalabadská oblast", "name:de": "Gebiet Dschalalabat", "name:en": "Jalal-Abad Region", "name:eo": "Provinco Ĵalalabat", "name:es": "Provincia de Jalal-Abad", "name:et": "Džalal-Abadi oblast", "name:eu": "Jalal-Abad eskualdea", "name:fa": "استان جلال‌آباد", "name:fi": "Žalal-Abadin alue", "name:fr": "Province de Jalal-Abad", "name:frr": "Dschalalabat", "name:gl": "Rexión de Jalal-Abad", "name:hi": "जलालाबाद प्रांत", "name:hr": "Žalalabatska oblast", "name:hy": "Ջալալաբադի մարզ", "name:id": "Provinsi Jalal-Abad", "name:it": "Regione di Žalalabad", "name:ja": "ジャララバード州", "name:ka": "ჯალალაბადის ოლქი", "name:kaa": "Jalal-Abad wa'layati", "name:kk": "Жалалабат облысы", "name:ko": "잘랄아바트주", "name:ky": "Жалал-Абад облусу", "name:lt": "Džalalabato sritis", "name:lv": "Džalalabadas apgabals", "name:mn": "Жалалабат муж", "name:nl": "Dzjalal-Abad", "name:os": "Джалал-Абады облæст", "name:pl": "Obwód dżalalabadzki", "name:pt": "Jalal-Abad", "name:ro": "Regiunea Jalal-Abad", "name:ru": "Джалал-Абадская область", "name:sco": "Jalal-Abad Region", "name:sr": "Џалал-Абадска област", "name:sv": "Jalal-Abad", "name:tg": "Вилояти Ҷалолобод", "name:tr": "Celal-Abad ili", "name:tt": "Җәлал-Абад өлкәсе", "name:ug": "جالالئاباد ئوبلاستى", "name:uk": "Джалал-Абадська область", "name:ur": "صوبہ جلال آباد", "name:uz": "Jalolobod", "name:vi": "Jalal-Abad", "name:zh": "贾拉拉巴德州", "type": "boundary", "wikidata": "Q487640", "wikipedia": "ky:Жалал-Абад облусу" }, "geometry": { "type": "MultiPolygon", "coordinates": [ [ [ [ 73.1051085, 42.117329 ], [ 73.0729649, 42.1172972 ], [ 73.027832, 42.1357131 ], [ 72.9974909, 42.119242 ], [ 72.9694075, 42.1404303 ], [ 72.9382793, 42.1070914 ], [ 72.882425, 42.0959309 ], [ 72.8893773, 42.0711673 ], [ 72.8260633, 42.0479833 ], [ 72.7877828, 42.0605063 ], [ 72.7712887, 42.0784306 ], [ 72.7008964, 42.1194943 ], [ 72.6663924, 42.1310325 ], [ 72.6217175, 42.1259241 ], [ 72.5747682, 42.1362836 ], [ 72.5473023, 42.1558682 ], [ 72.5090156, 42.1526062 ], [ 72.4747691, 42.1658879 ], [ 72.4400506, 42.1572989 ], [ 72.3914206, 42.1629677 ], [ 72.393781, 42.1840864 ], [ 72.3472178, 42.2094735 ], [ 72.285806, 42.2106814 ], [ 72.2371581, 42.2207871 ], [ 72.216205, 42.2146226 ], [ 72.2190479, 42.1787104 ], [ 72.1810678, 42.153645 ], [ 72.1922902, 42.1121563 ], [ 72.1788147, 42.0770792 ], [ 72.1441177, 42.0583465 ], [ 72.0737527, 42.067791 ], [ 72.0167214, 42.0948013 ], [ 71.9811103, 42.097431 ], [ 71.8389923, 42.1518446 ], [ 71.816168, 42.144501 ], [ 71.7096151, 42.1665105 ], [ 71.6935432, 42.1852913 ], [ 71.6499841, 42.2079125 ], [ 71.6064894, 42.2149054 ], [ 71.5612352, 42.1965949 ], [ 71.4964857, 42.1998649 ], [ 71.4910712, 42.1867348 ], [ 71.4521741, 42.1837002 ], [ 71.3764434, 42.2065888 ], [ 71.3251935, 42.2084493 ], [ 71.2928154, 42.2184849 ], [ 71.2709058, 42.2049437 ], [ 71.25921, 42.1726247 ], [ 71.2178708, 42.1372099 ], [ 71.1738824, 42.1437643 ], [ 71.1022682, 42.1103485 ], [ 71.0996664, 42.0946194 ], [ 71.0494282, 42.0810627 ], [ 71.0401427, 42.0636521 ], [ 70.9927462, 42.0304072 ], [ 70.9422029, 42.0311812 ], [ 70.8651702, 42.0541323 ], [ 70.8378758, 41.9997011 ], [ 70.8520336, 41.9889848 ], [ 70.8539149, 41.9415169 ], [ 70.8348048, 41.9231054 ], [ 70.8068604, 41.9206212 ], [ 70.7572325, 41.9364243 ], [ 70.7564307, 41.9156138 ], [ 70.707664, 41.9198041 ], [ 70.6649614, 41.9069509 ], [ 70.6268591, 41.8517558 ], [ 70.6033611, 41.8507165 ], [ 70.5966908, 41.818221 ], [ 70.5275022, 41.7985755 ], [ 70.5086934, 41.7720535 ], [ 70.4966927, 41.7196874 ], [ 70.4668041, 41.7206278 ], [ 70.4498127, 41.7025461 ], [ 70.3965693, 41.6841771 ], [ 70.3670735, 41.6474849 ], [ 70.3018455, 41.6312249 ], [ 70.263204, 41.6073812 ], [ 70.2092461, 41.611957 ], [ 70.2086188, 41.5733038 ], [ 70.1792873, 41.5574959 ], [ 70.1732183, 41.5164203 ], [ 70.2404393, 41.4913852 ], [ 70.3031382, 41.5206138 ], [ 70.3250383, 41.5004818 ], [ 70.3634716, 41.492685 ], [ 70.3808817, 41.4665986 ], [ 70.4074555, 41.4703564 ], [ 70.4638759, 41.4269068 ], [ 70.4880087, 41.3981736 ], [ 70.5515115, 41.4102381 ], [ 70.5698342, 41.4425466 ], [ 70.6659962, 41.4701753 ], [ 70.7171645, 41.4657924 ], [ 70.7344005, 41.4272044 ], [ 70.77837, 41.3883844 ], [ 70.7732097, 41.3056495 ], [ 70.775962, 41.21655 ], [ 70.7825552, 41.198377 ], [ 70.799571, 41.230547 ], [ 70.855243, 41.2502641 ], [ 70.8888745, 41.2141105 ], [ 70.9341287, 41.1912824 ], [ 70.9626004, 41.1657552 ], [ 71.0389375, 41.1904226 ], [ 71.1271224, 41.14358 ], [ 71.202384, 41.1855393 ], [ 71.224503, 41.1709984 ], [ 71.2313872, 41.1926569 ], [ 71.2725153, 41.1733892 ], [ 71.2772353, 41.099419 ], [ 71.3467037, 41.1272367 ], [ 71.3956929, 41.1073068 ], [ 71.4516525, 41.156998 ], [ 71.4310841, 41.1892222 ], [ 71.458705, 41.2073416 ], [ 71.4423589, 41.2481331 ], [ 71.4568705, 41.2625565 ], [ 71.4466111, 41.2850351 ], [ 71.5189127, 41.3057645 ], [ 71.5236011, 41.2915071 ], [ 71.5602667, 41.2899879 ], [ 71.6109211, 41.3350162 ], [ 71.6363513, 41.3425031 ], [ 71.6623411, 41.3821181 ], [ 71.6506134, 41.3982497 ], [ 71.6807895, 41.4220474 ], [ 71.6510866, 41.481973 ], [ 71.6015925, 41.4767981 ], [ 71.6694498, 41.4974269 ], [ 71.6765816, 41.5149342 ], [ 71.7174347, 41.5482407 ], [ 71.7369344, 41.5334428 ], [ 71.7109922, 41.4876525 ], [ 71.7219623, 41.4668505 ], [ 71.6968814, 41.4453297 ], [ 71.6881609, 41.4195093 ], [ 71.7121545, 41.3990328 ], [ 71.7298173, 41.4442437 ], [ 71.7920862, 41.4394768 ], [ 71.8044737, 41.3998814 ], [ 71.8309672, 41.3876495 ], [ 71.8431938, 41.352499 ], [ 71.8763751, 41.3610978 ], [ 71.9003146, 41.3090638 ], [ 71.925132, 41.2942215 ], [ 71.8865996, 41.2560443 ], [ 71.8620069, 41.2008483 ], [ 71.8838114, 41.1932565 ], [ 71.8863646, 41.1678132 ], [ 71.9516404, 41.1461036 ], [ 71.9601747, 41.1569704 ], [ 72.0066045, 41.1565212 ], [ 72.0128104, 41.1423576 ], [ 72.0710903, 41.117437 ], [ 72.0996056, 41.1463807 ], [ 72.1369662, 41.16235 ], [ 72.1767389, 41.156775 ], [ 72.1500316, 41.1253403 ], [ 72.1788734, 41.116658 ], [ 72.2073834, 41.0619172 ], [ 72.207838, 41.0284862 ], [ 72.1845236, 40.9968748 ], [ 72.2472818, 41.0018775 ], [ 72.2944963, 41.0298121 ], [ 72.3302884, 41.036926 ], [ 72.3476983, 41.0600209 ], [ 72.3813613, 41.0315695 ], [ 72.4441152, 41.0316447 ], [ 72.4878727, 41.0008739 ], [ 72.4992504, 40.9672681 ], [ 72.5448272, 40.9658019 ], [ 72.592935, 40.9050516 ], [ 72.5728213, 40.8775413 ], [ 72.6297671, 40.8623276 ], [ 72.712603, 40.8486927 ], [ 72.8340074, 40.85598 ], [ 72.892266, 40.8298569 ], [ 72.9390539, 40.8004244 ], [ 72.9999376, 40.8428981 ], [ 73.0623652, 40.841225 ], [ 73.1539824, 40.8522547 ], [ 73.1622221, 40.868665 ], [ 73.2223265, 40.8739092 ], [ 73.2436354, 40.9318621 ], [ 73.2257369, 40.9479069 ], [ 73.2267897, 41.0045513 ], [ 73.3203483, 41.0420709 ], [ 73.3266428, 41.0252003 ], [ 73.3691233, 41.0190356 ], [ 73.374296, 41.0509409 ], [ 73.4096703, 41.0528033 ], [ 73.4065964, 41.0786984 ], [ 73.4257081, 41.103573 ], [ 73.4488709, 41.0882216 ], [ 73.4972794, 41.0925341 ], [ 73.5782463, 41.07135 ], [ 73.6157372, 41.0941229 ], [ 73.5883249, 41.1281115 ], [ 73.6410517, 41.1422157 ], [ 73.6838539, 41.0898457 ], [ 73.6044777, 41.0501751 ], [ 73.5622533, 40.9982847 ], [ 73.6098607, 40.9875737 ], [ 73.6023305, 40.9589046 ], [ 73.6433233, 40.9621022 ], [ 73.6920288, 40.9428 ], [ 73.6977763, 40.9903967 ], [ 73.728379, 41.0341124 ], [ 73.7916912, 41.0692779 ], [ 73.8169612, 41.1252662 ], [ 73.8624359, 41.1183131 ], [ 73.8490827, 41.100375 ], [ 73.8888392, 41.0830386 ], [ 73.8791624, 41.0095014 ], [ 73.9180402, 40.9964962 ], [ 74.0063073, 40.9894126 ], [ 74.0165741, 40.9747836 ], [ 74.0432321, 41.013311 ], [ 74.073144, 41.032709 ], [ 74.08383, 41.0595404 ], [ 74.0373391, 41.1079236 ], [ 74.0427528, 41.1413111 ], [ 74.138175, 41.1841361 ], [ 74.1460715, 41.1960852 ], [ 74.1862027, 41.1929537 ], [ 74.2944352, 41.2087111 ], [ 74.3337671, 41.1934381 ], [ 74.3744449, 41.2188749 ], [ 74.3239121, 41.2602458 ], [ 74.3194003, 41.3013163 ], [ 74.4086603, 41.3217833 ], [ 74.4278647, 41.34286 ], [ 74.546881, 41.3574997 ], [ 74.5458057, 41.3678951 ], [ 74.6058871, 41.3759021 ], [ 74.640198, 41.4088698 ], [ 74.6784995, 41.4242101 ], [ 74.6816676, 41.4714929 ], [ 74.728772, 41.510904 ], [ 74.7369473, 41.5431769 ], [ 74.7089746, 41.5885725 ], [ 74.737061, 41.6281332 ], [ 74.7248731, 41.6421818 ], [ 74.6654568, 41.6345485 ], [ 74.6547279, 41.6198405 ], [ 74.6091288, 41.6099255 ], [ 74.5816845, 41.6159335 ], [ 74.5397562, 41.5938398 ], [ 74.5243263, 41.5684921 ], [ 74.5087695, 41.5802425 ], [ 74.4349122, 41.5776903 ], [ 74.4291616, 41.5609785 ], [ 74.2673501, 41.5675953 ], [ 74.226559, 41.5661986 ], [ 74.1775328, 41.5509537 ], [ 74.1541225, 41.5696748 ], [ 74.1154095, 41.5796012 ], [ 74.0812093, 41.5722788 ], [ 74.0246063, 41.5819837 ], [ 73.9831894, 41.6149511 ], [ 73.9805412, 41.6344312 ], [ 73.9516739, 41.6558643 ], [ 73.9126763, 41.6519259 ], [ 73.8845633, 41.7045754 ], [ 73.9181696, 41.7074553 ], [ 73.9767491, 41.6846398 ], [ 74.0153514, 41.6802328 ], [ 74.0403312, 41.6610312 ], [ 74.0269201, 41.6285446 ], [ 74.0520256, 41.6084928 ], [ 74.077994, 41.6156746 ], [ 74.0754834, 41.6994882 ], [ 74.0875279, 41.7242821 ], [ 74.0573522, 41.733165 ], [ 74.0116739, 41.7308985 ], [ 73.9758456, 41.7405636 ], [ 73.9848318, 41.7533465 ], [ 73.9616146, 41.7905379 ], [ 73.9689746, 41.8218394 ], [ 73.9318743, 41.849897 ], [ 73.8875857, 41.8378442 ], [ 73.8533725, 41.8426489 ], [ 73.8069088, 41.8738502 ], [ 73.7988622, 41.8487283 ], [ 73.7120444, 41.8688649 ], [ 73.788577929883871, 41.951775719493106 ], [ 73.7635134, 42.0081768 ], [ 73.7167785, 42.0052111 ], [ 73.682339, 42.0161643 ], [ 73.5977314, 41.9939371 ], [ 73.563957, 42.0017988 ], [ 73.5182522, 41.9955478 ], [ 73.4935758, 42.0097393 ], [ 73.4568168, 42.0101341 ], [ 73.4128715, 42.0271596 ], [ 73.3613731, 42.0264105 ], [ 73.3277807, 42.0370204 ], [ 73.3117947, 42.0920744 ], [ 73.2142464, 42.1136805 ], [ 73.1051085, 42.117329 ] ] ] ] } }
]
}
