{
"type": "FeatureCollection",
"name": "Y",
"crs": { "type": "name", "properties": { "name": "urn:ogc:def:crs:OGC:1.3:CRS84" } },
"features": [
{ "type": "Feature", "properties": { "iso3166": "KG-Y", "admin_level": "4", "alt_name:fr": "Yssykköl", "alt_name:ja": "イシク・クル", "alt_name:ky": "Ысык-Көл областы", "boundary": "administrative", "int_name": "Isık-Köl oblusu", "is_in:country": "Kyrgyzstan", "is_in:country_code": "KG", "name": "Ысык-Көл облусу", "name:ace": "Propinsi Issyk Kul", "name:ar": "ايسيك كول أوبلاستي", "name:az": "İsıkgöl vilayəti", "name:ba": "Эҫек-Күл өлкәһе", "name:ba-Arab": "ئىُثىُك كول ئۇلكەھىُ", "name:be": "Ісык-Кульская вобласць", "name:be-tarask": "Ісык-Кульская вобласьць", "name:bg": "Исъккулска област", "name:ca": "Província d'Issik Kul", "name:ce": "Иссык-Кулан область", "name:ceb": "Issyk-Kul'skaya Oblast'", "name:de": "Gebiet Yssykköl", "name:el": "Περιφέρεια Ισσύκ-Κουλ", "name:en": "Issyk-Kul Region", "name:eo": "Provinco Isik-Köl", "name:es": "Provincia de Ysyk-Kol", "name:et": "Õsõk-Köli oblast", "name:eu": "Issyk-Kul eskualdea", "name:fa": "استان ایسیق‌کول", "name:fi": "Yssyk-Kölin alue", "name:fr": "Province d'Yssykköl", "name:frr": "Ysyk-Sia", "name:gl": "Rexión de Isiq-Köl", "name:hi": "इसिक कुल प्रांत", "name:hr": "Isjakulska oblast", "name:hy": "Իսիկ Կուլի մարզ", "name:id": "Provinsi Issyk Kul", "name:it": "Regione di Ysyk-Köl", "name:ja": "イシク・クル州", "name:ka": "ისიქ-ქოლის ოლქი", "name:kaa": "Issiq-ko'l wa'layati", "name:kk": "Ыстықкөл облысы", "name:kk-Arab": "ىستىقكول وبلىسى", "name:ko": "이식쿨주", "name:ky": "Ысык-Көл облусу", "name:ky-Arab": "ىسىق كۅل وبلۇسۇ", "name:lt": "Isyk Kulio sritis", "name:lv": "Isikula apgabals", "name:mn": "Ысыккөл муж", "name:nl": "Ysykköl", "name:no": "Ysyk-Köl", "name:os": "Иссык-Кулы облæст", "name:pl": "Obwód issykkulski", "name:pnb": "اسیک کول صوبہ", "name:pt": "Issyk-Kul", "name:ro": "Regiunea Issâk-Kul", "name:ru": "Иссык-Кульская область", "name:sco": "Issyk Kul Region", "name:sh": "Isjakulska oblast", "name:sr": "Исик-Кулска област", "name:sv": "Ysyk-Köl", "name:ta": "இசிக் - குல் பிராந்தியம்", "name:tg": "Вилояти Иссиқкӯл", "name:th": "จังหวัดอือซึก-เกิล", "name:tr": "Issık-Göl ili", "name:tt": "Эссек-Күл өлкәсе", "name:tt-Arab": "ئىُسسىُك كول ئۇلكەسىُ", "name:ug": "ئىسسىقكۆل ئوبلاستى", "name:uk": "Іссик-Кульська область", "name:ur": "صوبہ ایسیک کول", "name:uz": "Issiqkoʻl", "name:vi": "Issyk-Kul", "name:zh": "伊塞克湖州", "type": "boundary", "wikidata": "Q487413", "wikipedia": "ky:Ысык-Көл облусу" }, "geometry": { "type": "MultiPolygon", "coordinates": [ [ [ [ 80.1744037, 42.2108441 ], [ 80.118209, 42.2763702 ], [ 80.1425583, 42.2857 ], [ 80.081662, 42.339383 ], [ 80.03027, 42.342921 ], [ 79.98213, 42.377598 ], [ 79.967776, 42.432224 ], [ 79.920259, 42.442296 ], [ 79.865755, 42.437925 ], [ 79.787058, 42.446638 ], [ 79.748169, 42.463964 ], [ 79.673322, 42.480098 ], [ 79.640753, 42.454613 ], [ 79.504877, 42.459887 ], [ 79.491167, 42.486365 ], [ 79.451583, 42.500685 ], [ 79.424027, 42.536315 ], [ 79.381454, 42.565788 ], [ 79.346265, 42.602277 ], [ 79.318969, 42.6021593 ], [ 79.2985213, 42.6201358 ], [ 79.2711162, 42.6216687 ], [ 79.21659, 42.6560987 ], [ 79.1820147, 42.6975423 ], [ 79.1720666, 42.7550497 ], [ 79.2021409, 42.8037961 ], [ 79.1061657, 42.7820275 ], [ 79.0944244, 42.7869787 ], [ 79.029209, 42.762601 ], [ 79.022988, 42.777168 ], [ 78.967239, 42.781852 ], [ 78.930488, 42.774268 ], [ 78.865709, 42.800704 ], [ 78.851893, 42.794918 ], [ 78.709549, 42.826114 ], [ 78.664153, 42.814881 ], [ 78.641886, 42.842362 ], [ 78.613007, 42.854749 ], [ 78.594153, 42.84718 ], [ 78.491834, 42.900669 ], [ 78.410674, 42.877023 ], [ 78.370006, 42.886721 ], [ 78.350308, 42.855175 ], [ 78.306999, 42.857244 ], [ 78.197829, 42.881989 ], [ 78.171543, 42.860289 ], [ 78.10784, 42.863351 ], [ 78.091759, 42.849356 ], [ 78.056632, 42.848016 ], [ 78.002178, 42.870654 ], [ 77.967561, 42.850948 ], [ 77.934015, 42.881626 ], [ 77.911121, 42.870732 ], [ 77.874056, 42.888611 ], [ 77.840742, 42.881879 ], [ 77.779468, 42.914801 ], [ 77.762298, 42.905743 ], [ 77.696993, 42.903906 ], [ 77.670445, 42.917955 ], [ 77.58074, 42.915607 ], [ 77.549915, 42.939487 ], [ 77.481503, 42.925356 ], [ 77.476347, 42.938194 ], [ 77.422409, 42.928488 ], [ 77.353718, 42.898962 ], [ 77.32255, 42.913592 ], [ 77.2224712, 42.9166543 ], [ 77.1555029, 42.8868253 ], [ 77.1084936, 42.8442493 ], [ 77.1213896, 42.8275545 ], [ 77.1002967, 42.8104144 ], [ 77.0620162, 42.8170097 ], [ 76.952389, 42.8042592 ], [ 76.8544185, 42.8058679 ], [ 76.7956179, 42.7777928 ], [ 76.7522575, 42.7723182 ], [ 76.6047962, 42.7756947 ], [ 76.5677388, 42.7661335 ], [ 76.4898903, 42.7709379 ], [ 76.3655646, 42.7323977 ], [ 76.3523252, 42.7193459 ], [ 76.2957151, 42.7011432 ], [ 76.2362988, 42.6542592 ], [ 76.2016017, 42.6465575 ], [ 76.181381, 42.6102066 ], [ 76.1051404, 42.6172138 ], [ 76.0074081, 42.6008907 ], [ 75.9683019, 42.5859735 ], [ 75.9186345, 42.5860241 ], [ 75.8789006, 42.5723221 ], [ 75.815607, 42.6007394 ], [ 75.8047762, 42.5766833 ], [ 75.8185199, 42.5580711 ], [ 75.8106585, 42.5286668 ], [ 75.7801944, 42.539815 ], [ 75.7450839, 42.5214978 ], [ 75.7051669, 42.5167237 ], [ 75.6900448, 42.4786337 ], [ 75.639184304861359, 42.447511480748268 ], [ 75.6543849, 42.4314852 ], [ 75.6972145, 42.424431 ], [ 75.7560331, 42.3972963 ], [ 75.7970968, 42.3947047 ], [ 75.7742944, 42.3738133 ], [ 75.7976175, 42.3553291 ], [ 75.8743844, 42.360217 ], [ 75.89497, 42.4012689 ], [ 75.9750328, 42.3894536 ], [ 75.9717141, 42.3373485 ], [ 75.9830192, 42.2776896 ], [ 76.003939, 42.2463524 ], [ 76.0005899, 42.2144165 ], [ 76.0562932, 42.1834189 ], [ 76.0539357, 42.1639627 ], [ 76.1203343, 42.1434313 ], [ 76.1278874, 42.11943 ], [ 76.0999221, 42.0865896 ], [ 76.0893248, 42.0559224 ], [ 76.0644179, 42.0579398 ], [ 76.0392698, 42.0153752 ], [ 76.0962529, 42.0108499 ], [ 76.1420979, 42.0256096 ], [ 76.1688701, 42.0214225 ], [ 76.1959239, 42.0429283 ], [ 76.269395, 42.0131583 ], [ 76.365782, 42.0086917 ], [ 76.3892653, 41.9905087 ], [ 76.4709303, 41.988076 ], [ 76.5420883, 41.968105 ], [ 76.546293, 41.9530889 ], [ 76.5953197, 41.9467619 ], [ 76.6226047, 41.925908 ], [ 76.6459189, 41.94178 ], [ 76.6564798, 41.9160395 ], [ 76.6243813, 41.8901544 ], [ 76.6203017, 41.8610807 ], [ 76.6013974, 41.8492141 ], [ 76.4803204, 41.8554668 ], [ 76.4436307, 41.8083293 ], [ 76.4409582, 41.762863 ], [ 76.4916326, 41.7660555 ], [ 76.5319616, 41.7493402 ], [ 76.5606913, 41.7553912 ], [ 76.6148905, 41.7508663 ], [ 76.6562234, 41.7589513 ], [ 76.6837455, 41.7817031 ], [ 76.7339099, 41.7682548 ], [ 76.7335733, 41.7142047 ], [ 76.6934672, 41.6943049 ], [ 76.7238481, 41.6735852 ], [ 76.7182536, 41.6500146 ], [ 76.6874461, 41.6218407 ], [ 76.6865763, 41.5877487 ], [ 76.7219615, 41.5784524 ], [ 76.7382235, 41.598384 ], [ 76.7658038, 41.5952346 ], [ 76.7971377, 41.5626698 ], [ 76.8344912, 41.5690402 ], [ 76.8808432, 41.5538372 ], [ 76.9189749, 41.5762024 ], [ 76.9917649, 41.5777582 ], [ 76.9976261, 41.5546522 ], [ 77.041045, 41.5552003 ], [ 77.0722646, 41.5783715 ], [ 77.1111974, 41.5700499 ], [ 77.1398992, 41.576197 ], [ 77.1947393, 41.5712999 ], [ 77.2166433, 41.5604428 ], [ 77.3099181, 41.5856195 ], [ 77.3309066, 41.615298 ], [ 77.3475269, 41.617219 ], [ 77.3683548, 41.5771395 ], [ 77.3636391, 41.5383244 ], [ 77.3429711, 41.5126897 ], [ 77.2901124, 41.4976197 ], [ 77.3077935, 41.4800352 ], [ 77.329789, 41.4031392 ], [ 77.3564724, 41.3870021 ], [ 77.418485, 41.3819469 ], [ 77.4456862, 41.3548753 ], [ 77.4277511, 41.3396917 ], [ 77.4112095, 41.2807041 ], [ 77.3672782, 41.2509543 ], [ 77.4652772, 41.2629602 ], [ 77.5659251, 41.2919576 ], [ 77.6274486, 41.2930066 ], [ 77.6320949, 41.281346 ], [ 77.6703917, 41.2829971 ], [ 77.6467024, 41.2497591 ], [ 77.6469084, 41.220464 ], [ 77.7011535, 41.1946771 ], [ 77.7770902, 41.213103 ], [ 77.803031, 41.2039645 ], [ 77.8724095, 41.2003503 ], [ 77.9049915, 41.1837815 ], [ 77.9651534, 41.1887795 ], [ 77.9727709, 41.1816498 ], [ 78.1214082, 41.2275147 ], [ 78.1336456, 41.245688 ], [ 78.1371885, 41.3123435 ], [ 78.1575378, 41.3414729 ], [ 78.1459073, 41.3675934 ], [ 78.1892902, 41.3937614 ], [ 78.238839, 41.4004362 ], [ 78.3208816, 41.3808855 ], [ 78.3360947, 41.3949612 ], [ 78.3818674, 41.3915945 ], [ 78.3891798, 41.4081089 ], [ 78.4493309, 41.4131374 ], [ 78.5320476, 41.4419915 ], [ 78.5573545, 41.4766626 ], [ 78.5847439, 41.4689963 ], [ 78.6453028, 41.4698151 ], [ 78.6627655, 41.4992049 ], [ 78.7030869, 41.5225109 ], [ 78.6900853, 41.530952 ], [ 78.7245817, 41.5549657 ], [ 78.815072, 41.5586411 ], [ 78.823936, 41.5715572 ], [ 78.9063483, 41.612874 ], [ 78.9287731, 41.6418461 ], [ 78.9901704, 41.6639995 ], [ 79.0208222, 41.6591597 ], [ 79.0284776, 41.6796913 ], [ 79.0828369, 41.6889601 ], [ 79.1240432, 41.7224849 ], [ 79.2167217, 41.7261461 ], [ 79.248267, 41.7572963 ], [ 79.2739443, 41.7663201 ], [ 79.3227743, 41.8107657 ], [ 79.3467567, 41.7936061 ], [ 79.4094256, 41.8408038 ], [ 79.4680595, 41.8523653 ], [ 79.4843586, 41.8375514 ], [ 79.5461225, 41.8373554 ], [ 79.615345, 41.8604523 ], [ 79.6321034, 41.8924703 ], [ 79.7528622, 41.9019011 ], [ 79.768728, 41.8917558 ], [ 79.8019873, 41.9195035 ], [ 79.8172213, 41.9646926 ], [ 79.8522072, 41.9856638 ], [ 79.8544933, 42.0218932 ], [ 79.9141001, 42.0423133 ], [ 80.0797303, 42.0449613 ], [ 80.1379951, 42.0304397 ], [ 80.1986907, 42.036932 ], [ 80.2271239, 42.0658727 ], [ 80.1654701, 42.1009257 ], [ 80.1415086, 42.1531915 ], [ 80.1638029, 42.1556414 ], [ 80.1744037, 42.2108441 ], [ 80.1744037, 42.2108441 ] ] ] ] } }
]
}
